{"type": "FeatureCollection", "meta": {"layer": "auction", "source": "법원경매정보(auction_crawling 재사용, 수도권 크롤 20260619)", "collected_at": "2026-07-10T10:24:47+09:00", "base_date": "2026-06-19", "region": "경기도 성남시 분당구", "count": 62, "geocode_failed": 2, "total_collected": 64, "geocode_failed_cases": ["2025타경52353", "2025타경53404"]}, "features": [{"type": "Feature", "geometry": {"type": "Point", "coordinates": [127.1272773, 37.4130885]}, "properties": {"layer": "auction", "id": "B0002512024013000429411", "name": "2024타경4294", "category": "기타", "color": "#9e9e9e", "case_no": "2024타경4294", "usage": "기타", "appraisal": 43000000, "min_bid": 43000000, "fail_count": 1, "court": "성남지원", "address": "경기도 성남시 분당구 야탑동 341 성남(분당)여객자동차터미널및복합건물 제지2층 제254호", "auction_date": "20260706", "geocode_failed": false}}, {"type": "Feature", "geometry": {"type": "Point", "coordinates": [127.1272773, 37.4130885]}, "properties": {"layer": "auction", "id": "B0002512024013000429422", "name": "2024타경4294", "category": "기타", "color": "#9e9e9e", "case_no": "2024타경4294", "usage": "기타", "appraisal": 43000000, "min_bid": 43000000, "fail_count": 1, "court": "성남지원", "address": "경기도 성남시 분당구 야탑동 341 성남(분당)여객자동차터미널및복합건물 제지2층 제257호", "auction_date": "20260706", "geocode_failed": false}}, {"type": "Feature", "geometry": {"type": "Point", "coordinates": [127.1272773, 37.4130885]}, "properties": {"layer": "auction", "id": "B0002512024013000430011", "name": "2024타경4300", "category": "상업/업무", "color": "#2196f3", "case_no": "2024타경4300", "usage": "상가,오피스텔,근린시설", "appraisal": 55000000, "min_bid": 55000000, "fail_count": 1, "court": "성남지원", "address": "경기도 성남시 분당구 야탑동 341 성남(분당)여객자동차터미널및복합건물 제지2층 제265호", "auction_date": "20260706", "geocode_failed": false}}, {"type": "Feature", "geometry": {"type": "Point", "coordinates": [127.1272773, 37.4130885]}, "properties": {"layer": "auction", "id": "B0002512024013000439311", "name": "2024타경4393", "category": "기타", "color": "#9e9e9e", "case_no": "2024타경4393", "usage": "기타", "appraisal": 39000000, "min_bid": 39000000, "fail_count": 1, "court": "성남지원", "address": "경기도 성남시 분당구 야탑동 341 성남(분당)여객자동차터미널및복합건물 지2층611호", "auction_date": "20260706", "geocode_failed": false}}, {"type": "Feature", "geometry": {"type": "Point", "coordinates": [127.1272773, 37.4130885]}, "properties": {"layer": "auction", "id": "B0002512024013000444711", "name": "2024타경4447", "category": "상업/업무", "color": "#2196f3", "case_no": "2024타경4447", "usage": "상가,오피스텔,근린시설", "appraisal": 36000000, "min_bid": 25200000, "fail_count": 2, "court": "성남지원", "address": "경기도 성남시 분당구 야탑동 341 성남(분당)여객자동차터미널및복합건물 지2층639호", "auction_date": "20260629", "geocode_failed": false}}, {"type": "Feature", "geometry": {"type": "Point", "coordinates": [127.1272773, 37.4130885]}, "properties": {"layer": "auction", "id": "B0002512024013000525911", "name": "2024타경5259", "category": "기타", "color": "#9e9e9e", "case_no": "2024타경5259", "usage": "기타", "appraisal": 41000000, "min_bid": 41000000, "fail_count": 1, "court": "성남지원", "address": "경기도 성남시 분당구 야탑동 341 성남(분당)여객자동차터미널및복합건물 제지2층 제127호", "auction_date": "20260706", "geocode_failed": false}}, {"type": "Feature", "geometry": {"type": "Point", "coordinates": [127.1099369, 37.3403775]}, "properties": {"layer": "auction", "id": "B0002512024013005532211", "name": "2024타경55322", "category": "상업/업무", "color": "#2196f3", "case_no": "2024타경55322", "usage": "상가,오피스텔,근린시설", "appraisal": 104000000, "min_bid": 5996000, "fail_count": 9, "court": "성남지원", "address": "경기도 성남시 분당구 구미동 182 분당대맥주차빌딩 1동 7층770호", "auction_date": "20260629", "geocode_failed": false}}, {"type": "Feature", "geometry": {"type": "Point", "coordinates": [127.0644679, 37.3885683]}, "properties": {"layer": "auction", "id": "B0002512025013000068811", "name": "2025타경688", "category": "토지", "color": "#4caf50", "case_no": "2025타경688", "usage": "임야", "appraisal": 308446800, "min_bid": 215913000, "fail_count": 2, "court": "성남지원", "address": "경기도 성남시 분당구 운중동 산100-3", "auction_date": "20260706", "geocode_failed": false}}, {"type": "Feature", "geometry": {"type": "Point", "coordinates": [127.1206119, 37.3860249]}, "properties": {"layer": "auction", "id": "B0002512025013000088611", "name": "2025타경886", "category": "상업/업무", "color": "#2196f3", "case_no": "2025타경886", "usage": "오피스텔", "appraisal": 1037500000, "min_bid": 508375000, "fail_count": 3, "court": "성남지원", "address": "경기도 성남시 분당구 서현동 275 라포르테블랑서현 609호", "auction_date": "20260706", "geocode_failed": false}}, {"type": "Feature", "geometry": {"type": "Point", "coordinates": [127.1206119, 37.3860249]}, "properties": {"layer": "auction", "id": "B0002512025013000088612", "name": "2025타경886", "category": "상업/업무", "color": "#2196f3", "case_no": "2025타경886", "usage": "오피스텔", "appraisal": 1037500000, "min_bid": 508375000, "fail_count": 3, "court": "성남지원", "address": "경기도 성남시 분당구 서현동 275 라포르테블랑서현 제1주차장호", "auction_date": "20260706", "geocode_failed": false}}, {"type": "Feature", "geometry": {"type": "Point", "coordinates": [127.1133453, 37.3528651]}, "properties": {"layer": "auction", "id": "B0002512025013000167411", "name": "2025타경1674", "category": "아파트", "color": "#e74c3c", "case_no": "2025타경1674", "usage": "아파트", "appraisal": 1230000000, "min_bid": 1230000000, "fail_count": 0, "court": "성남지원", "address": "경기도 성남시 분당구 금곡동 133 청솔마을 904동 12층1202호", "auction_date": "20260629", "geocode_failed": false}}, {"type": "Feature", "geometry": {"type": "Point", "coordinates": [127.0972918, 37.358745]}, "properties": {"layer": "auction", "id": "B0002512025013000197111", "name": "2025타경1971", "category": "기타", "color": "#9e9e9e", "case_no": "2025타경1971", "usage": "기타", "appraisal": 1001000000, "min_bid": 1001000000, "fail_count": 0, "court": "성남지원", "address": "경기도 성남시 분당구 금곡동 305-2 더헤리티지 102동 1층106호", "auction_date": "20260706", "geocode_failed": false}}, {"type": "Feature", "geometry": {"type": "Point", "coordinates": [127.1269864, 37.3923706]}, "properties": {"layer": "auction", "id": "B0002512025013000284411", "name": "2025타경2844", "category": "아파트", "color": "#e74c3c", "case_no": "2025타경2844", "usage": "아파트", "appraisal": 1990000000, "min_bid": 1990000000, "fail_count": 1, "court": "성남지원", "address": "경기도 성남시 분당구 이매동 123 이매촌아파트 605동 9층901호", "auction_date": "20260713", "geocode_failed": false}}, {"type": "Feature", "geometry": {"type": "Point", "coordinates": [127.1148499, 37.3390897]}, "properties": {"layer": "auction", "id": "B0002512025013000286811", "name": "2025타경2868", "category": "아파트", "color": "#e74c3c", "case_no": "2025타경2868", "usage": "아파트", "appraisal": 712000000, "min_bid": 712000000, "fail_count": 0, "court": "성남지원", "address": "경기도 성남시 분당구 구미동 201 무지개마을 309동 3층304호", "auction_date": "20260629", "geocode_failed": false}}, {"type": "Feature", "geometry": {"type": "Point", "coordinates": [127.1606779, 37.3890549]}, "properties": {"layer": "auction", "id": "B0002512025013000515711", "name": "2025타경5157", "category": "토지", "color": "#4caf50", "case_no": "2025타경5157", "usage": "전답", "appraisal": 231920000, "min_bid": 231920000, "fail_count": 1, "court": "성남지원", "address": "경기도 성남시 분당구 율동 168", "auction_date": "20260706", "geocode_failed": false}}, {"type": "Feature", "geometry": {"type": "Point", "coordinates": [127.1294463, 37.410158]}, "properties": {"layer": "auction", "id": "B0002512025013005151811", "name": "2025타경51518", "category": "상업/업무", "color": "#2196f3", "case_no": "2025타경51518", "usage": "상가,오피스텔,근린시설", "appraisal": 100162200, "min_bid": 100162200, "fail_count": 1, "court": "성남지원", "address": "경기도 성남시 분당구 야탑동 367-4", "auction_date": "20260706", "geocode_failed": false}}, {"type": "Feature", "geometry": {"type": "Point", "coordinates": [127.1292879, 37.4101748]}, "properties": {"layer": "auction", "id": "B0002512025013005151812", "name": "2025타경51518", "category": "상업/업무", "color": "#2196f3", "case_no": "2025타경51518", "usage": "상가,오피스텔,근린시설", "appraisal": 100162200, "min_bid": 100162200, "fail_count": 1, "court": "성남지원", "address": "경기도 성남시 분당구 야탑동 367-4 세신옴니코아빌딩 3층301호", "auction_date": "20260706", "geocode_failed": false}}, {"type": "Feature", "geometry": {"type": "Point", "coordinates": [127.1361584, 37.372506]}, "properties": {"layer": "auction", "id": "B0002512025013005173611", "name": "2025타경51736", "category": "아파트", "color": "#e74c3c", "case_no": "2025타경51736", "usage": "아파트", "appraisal": 1120000000, "min_bid": 1120000000, "fail_count": 0, "court": "성남지원", "address": "경기도 성남시 분당구 서현동 308 효자촌 626동 7층 704호", "auction_date": "20260706", "geocode_failed": false}}, {"type": "Feature", "geometry": {"type": "Point", "coordinates": [127.1292761, 37.4131483]}, "properties": {"layer": "auction", "id": "B0002512025013005186811", "name": "2025타경51868", "category": "상업/업무", "color": "#2196f3", "case_no": "2025타경51868", "usage": "근린시설", "appraisal": 100000000, "min_bid": 49000000, "fail_count": 3, "court": "성남지원", "address": "경기도 성남시 분당구 야탑동 360-4 궁전프라자 2동 지하층108호", "auction_date": "20260706", "geocode_failed": false}}, {"type": "Feature", "geometry": {"type": "Point", "coordinates": [127.1273225, 37.4130889]}, "properties": {"layer": "auction", "id": "B0002512025013005204311", "name": "2025타경52043", "category": "상업/업무", "color": "#2196f3", "case_no": "2025타경52043", "usage": "상가,오피스텔,근린시설", "appraisal": 424000000, "min_bid": 424000000, "fail_count": 0, "court": "성남지원", "address": "경기도 성남시 분당구 야탑동 341 성남(분당)여객자동차터미널및복합건물 3층203호", "auction_date": "20260629", "geocode_failed": false}}, {"type": "Feature", "geometry": {"type": "Point", "coordinates": [127.1273225, 37.4130889]}, "properties": {"layer": "auction", "id": "B0002512025013005204411", "name": "2025타경52044", "category": "상업/업무", "color": "#2196f3", "case_no": "2025타경52044", "usage": "상가,오피스텔,근린시설", "appraisal": 416000000, "min_bid": 291200000, "fail_count": 2, "court": "성남지원", "address": "경기도 성남시 분당구 야탑동 341 제3층 제225호", "auction_date": "20260713", "geocode_failed": false}}, {"type": "Feature", "geometry": {"type": "Point", "coordinates": [127.1273225, 37.4130889]}, "properties": {"layer": "auction", "id": "B0002512025013005204611", "name": "2025타경52046", "category": "상업/업무", "color": "#2196f3", "case_no": "2025타경52046", "usage": "상가,오피스텔,근린시설", "appraisal": 410000000, "min_bid": 200900000, "fail_count": 3, "court": "성남지원", "address": "경기도 성남시 분당구 야탑동 341 성남(분당)여객자동차터미널및복합건물 3층232호", "auction_date": "20260629", "geocode_failed": false}}, {"type": "Feature", "geometry": {"type": "Point", "coordinates": [127.1201998, 37.4077919]}, "properties": {"layer": "auction", "id": "B0002512025013005211811", "name": "2025타경52118", "category": "아파트", "color": "#e74c3c", "case_no": "2025타경52118", "usage": "아파트", "appraisal": 1200000000, "min_bid": 1200000000, "fail_count": 0, "court": "성남지원", "address": "경기도 성남시 분당구 야탑동 536 탑마을 102동 14층1403호", "auction_date": "20260706", "geocode_failed": false}}, {"type": "Feature", "geometry": {"type": "Point", "coordinates": [127.1383395, 37.3911112]}, "properties": {"layer": "auction", "id": "B0002512025013005213411", "name": "2025타경52134", "category": "토지", "color": "#4caf50", "case_no": "2025타경52134", "usage": "임야", "appraisal": 1776747000, "min_bid": 1776747000, "fail_count": 1, "court": "성남지원", "address": "경기도 성남시 분당구 이매동 산41-1", "auction_date": "20260706", "geocode_failed": false}}, {"type": "Feature", "geometry": {"type": "Point", "coordinates": [127.138468, 37.3907337]}, "properties": {"layer": "auction", "id": "B0002512025013005213412", "name": "2025타경52134", "category": "토지", "color": "#4caf50", "case_no": "2025타경52134", "usage": "임야", "appraisal": 1776747000, "min_bid": 1776747000, "fail_count": 1, "court": "성남지원", "address": "경기도 성남시 분당구 이매동 산41-14", "auction_date": "20260706", "geocode_failed": false}}, {"type": "Feature", "geometry": {"type": "Point", "coordinates": [127.1381292, 37.3907312]}, "properties": {"layer": "auction", "id": "B0002512025013005213413", "name": "2025타경52134", "category": "토지", "color": "#4caf50", "case_no": "2025타경52134", "usage": "임야", "appraisal": 1776747000, "min_bid": 1776747000, "fail_count": 1, "court": "성남지원", "address": "경기도 성남시 분당구 이매동 산41-13", "auction_date": "20260706", "geocode_failed": false}}, {"type": "Feature", "geometry": {"type": "Point", "coordinates": [127.1380494, 37.3908027]}, "properties": {"layer": "auction", "id": "B0002512025013005213414", "name": "2025타경52134", "category": "토지", "color": "#4caf50", "case_no": "2025타경52134", "usage": "임야", "appraisal": 1776747000, "min_bid": 1776747000, "fail_count": 1, "court": "성남지원", "address": "경기도 성남시 분당구 이매동 산41-4", "auction_date": "20260706", "geocode_failed": false}}, {"type": "Feature", "geometry": {"type": "Point", "coordinates": [127.1273225, 37.4130889]}, "properties": {"layer": "auction", "id": "B0002512025013005213711", "name": "2025타경52137", "category": "기타", "color": "#9e9e9e", "case_no": "2025타경52137", "usage": "기타", "appraisal": 240000000, "min_bid": 168000000, "fail_count": 2, "court": "성남지원", "address": "경기도 성남시 분당구 야탑동 341 성남(분당)여객자동차터미널및복합건물 3층 205호", "auction_date": "20260713", "geocode_failed": false}}, {"type": "Feature", "geometry": {"type": "Point", "coordinates": [127.1273225, 37.4130889]}, "properties": {"layer": "auction", "id": "B0002512025013005213722", "name": "2025타경52137", "category": "기타", "color": "#9e9e9e", "case_no": "2025타경52137", "usage": "기타", "appraisal": 412000000, "min_bid": 288400000, "fail_count": 2, "court": "성남지원", "address": "경기도 성남시 분당구 야탑동 341 성남(분당)여객자동차터미널및복합건물 3층 211호", "auction_date": "20260713", "geocode_failed": false}}, {"type": "Feature", "geometry": {"type": "Point", "coordinates": [127.1273225, 37.4130889]}, "properties": {"layer": "auction", "id": "B0002512025013005213733", "name": "2025타경52137", "category": "기타", "color": "#9e9e9e", "case_no": "2025타경52137", "usage": "기타", "appraisal": 240000000, "min_bid": 168000000, "fail_count": 2, "court": "성남지원", "address": "경기도 성남시 분당구 야탑동 341 성남(분당)여객자동차터미널및복합건물 3층 231호", "auction_date": "20260713", "geocode_failed": false}}, {"type": "Feature", "geometry": {"type": "Point", "coordinates": [127.106537, 37.3625636]}, "properties": {"layer": "auction", "id": "B0002512025013005241311", "name": "2025타경52413", "category": "상업/업무", "color": "#2196f3", "case_no": "2025타경52413", "usage": "상가,오피스텔,근린시설", "appraisal": 216000000, "min_bid": 216000000, "fail_count": 0, "court": "성남지원", "address": "경기도 성남시 분당구 정자동 166-1 정자역엠코헤리츠2단지 10층201-1008호", "auction_date": "20260706", "geocode_failed": false}}, {"type": "Feature", "geometry": {"type": "Point", "coordinates": [127.106537, 37.3625636]}, "properties": {"layer": "auction", "id": "B0002512025013005241322", "name": "2025타경52413", "category": "상업/업무", "color": "#2196f3", "case_no": "2025타경52413", "usage": "상가,오피스텔,근린시설", "appraisal": 242000000, "min_bid": 242000000, "fail_count": 0, "court": "성남지원", "address": "경기도 성남시 분당구 정자동 166-1 정자역엠코헤리츠2단지 8층202-801호", "auction_date": "20260706", "geocode_failed": false}}, {"type": "Feature", "geometry": {"type": "Point", "coordinates": [127.1119622, 37.389826]}, "properties": {"layer": "auction", "id": "B0002512025013005244322", "name": "2025타경52443", "category": "상업/업무", "color": "#2196f3", "case_no": "2025타경52443", "usage": "상가,오피스텔,근린시설", "appraisal": 600000000, "min_bid": 600000000, "fail_count": 0, "court": "성남지원", "address": "경기도 성남시 분당구 백현동 554 백현마을 다상가동및유치원동 4층401호", "auction_date": "20260629", "geocode_failed": false}}, {"type": "Feature", "geometry": {"type": "Point", "coordinates": [127.1119622, 37.389826]}, "properties": {"layer": "auction", "id": "B0002512025013005244333", "name": "2025타경52443", "category": "상업/업무", "color": "#2196f3", "case_no": "2025타경52443", "usage": "상가,오피스텔,근린시설", "appraisal": 604000000, "min_bid": 604000000, "fail_count": 0, "court": "성남지원", "address": "경기도 성남시 분당구 백현동 554 백현마을 다상가동및유치원동 4층402호", "auction_date": "20260629", "geocode_failed": false}}, {"type": "Feature", "geometry": {"type": "Point", "coordinates": [127.1100749, 37.3391981]}, "properties": {"layer": "auction", "id": "B0002512025013005251711", "name": "2025타경52517", "category": "상업/업무", "color": "#2196f3", "case_no": "2025타경52517", "usage": "상가,오피스텔,근린시설", "appraisal": 140000000, "min_bid": 140000000, "fail_count": 0, "court": "성남지원", "address": "경기도 성남시 분당구 구미동 186-1 팬텀광장 7층 706호", "auction_date": "20260629", "geocode_failed": false}}, {"type": "Feature", "geometry": {"type": "Point", "coordinates": [127.1580573, 37.3749434]}, "properties": {"layer": "auction", "id": "B0002512025013005256611", "name": "2025타경52566", "category": "토지", "color": "#4caf50", "case_no": "2025타경52566", "usage": "임야", "appraisal": 7470298000, "min_bid": 5229209000, "fail_count": 2, "court": "성남지원", "address": "경기도 성남시 분당구 분당동 산12", "auction_date": "20260629", "geocode_failed": false}}, {"type": "Feature", "geometry": {"type": "Point", "coordinates": [127.1099255, 37.3403864]}, "properties": {"layer": "auction", "id": "B0002512025013005258211", "name": "2025타경52582", "category": "상업/업무", "color": "#2196f3", "case_no": "2025타경52582", "usage": "상가,오피스텔,근린시설", "appraisal": 82000000, "min_bid": 82000000, "fail_count": 0, "court": "성남지원", "address": "경기도 성남시 분당구 구미동 182 분당대맥주차빌딩 1동 7층762호", "auction_date": "20260713", "geocode_failed": false}}, {"type": "Feature", "geometry": {"type": "Point", "coordinates": [127.0972918, 37.358745]}, "properties": {"layer": "auction", "id": "B0002512025013005260311", "name": "2025타경52603", "category": "아파트", "color": "#e74c3c", "case_no": "2025타경52603", "usage": "아파트", "appraisal": 842000000, "min_bid": 589400000, "fail_count": 2, "court": "성남지원", "address": "경기도 성남시 분당구 금곡동 305-2 더헤리티지 103동 2층204호", "auction_date": "20260629", "geocode_failed": false}}, {"type": "Feature", "geometry": {"type": "Point", "coordinates": [127.0664733, 37.3688776]}, "properties": {"layer": "auction", "id": "B0002512025013005273311", "name": "2025타경52733", "category": "토지", "color": "#4caf50", "case_no": "2025타경52733", "usage": "임야", "appraisal": 227452800, "min_bid": 227452800, "fail_count": 0, "court": "성남지원", "address": "경기도 성남시 분당구 대장동 산25-1", "auction_date": "20260629", "geocode_failed": false}}, {"type": "Feature", "geometry": {"type": "Point", "coordinates": [127.1202485, 37.3648919]}, "properties": {"layer": "auction", "id": "B0002512025013005283211", "name": "2025타경52832", "category": "아파트", "color": "#e74c3c", "case_no": "2025타경52832", "usage": "아파트", "appraisal": 710000000, "min_bid": 710000000, "fail_count": 0, "court": "성남지원", "address": "경기도 성남시 분당구 정자동 111 한솔마을 205동 1층 102호", "auction_date": "20260629", "geocode_failed": false}}, {"type": "Feature", "geometry": {"type": "Point", "coordinates": [127.1618238, 37.3875582]}, "properties": {"layer": "auction", "id": "B0002512025013005286511", "name": "2025타경52865", "category": "토지", "color": "#4caf50", "case_no": "2025타경52865", "usage": "임야", "appraisal": 839670000, "min_bid": 839670000, "fail_count": 0, "court": "성남지원", "address": "경기도 성남시 분당구 율동 산55-1", "auction_date": "20260629", "geocode_failed": false}}, {"type": "Feature", "geometry": {"type": "Point", "coordinates": [127.1614663, 37.3872133]}, "properties": {"layer": "auction", "id": "B0002512025013005286512", "name": "2025타경52865", "category": "토지", "color": "#4caf50", "case_no": "2025타경52865", "usage": "임야", "appraisal": 839670000, "min_bid": 839670000, "fail_count": 0, "court": "성남지원", "address": "경기도 성남시 분당구 율동 산55-2", "auction_date": "20260629", "geocode_failed": false}}, {"type": "Feature", "geometry": {"type": "Point", "coordinates": [127.1618952, 37.3872343]}, "properties": {"layer": "auction", "id": "B0002512025013005286513", "name": "2025타경52865", "category": "토지", "color": "#4caf50", "case_no": "2025타경52865", "usage": "임야", "appraisal": 839670000, "min_bid": 839670000, "fail_count": 0, "court": "성남지원", "address": "경기도 성남시 분당구 율동 산55-3", "auction_date": "20260629", "geocode_failed": false}}, {"type": "Feature", "geometry": {"type": "Point", "coordinates": [127.1616402, 37.386809]}, "properties": {"layer": "auction", "id": "B0002512025013005286514", "name": "2025타경52865", "category": "토지", "color": "#4caf50", "case_no": "2025타경52865", "usage": "임야", "appraisal": 839670000, "min_bid": 839670000, "fail_count": 0, "court": "성남지원", "address": "경기도 성남시 분당구 율동 산55-4", "auction_date": "20260629", "geocode_failed": false}}, {"type": "Feature", "geometry": {"type": "Point", "coordinates": [127.1619906, 37.3867755]}, "properties": {"layer": "auction", "id": "B0002512025013005286515", "name": "2025타경52865", "category": "토지", "color": "#4caf50", "case_no": "2025타경52865", "usage": "임야", "appraisal": 839670000, "min_bid": 839670000, "fail_count": 0, "court": "성남지원", "address": "경기도 성남시 분당구 율동 산55-5", "auction_date": "20260629", "geocode_failed": false}}, {"type": "Feature", "geometry": {"type": "Point", "coordinates": [127.1212854, 37.4164052]}, "properties": {"layer": "auction", "id": "B0002512025013005299711", "name": "2025타경52997", "category": "기타", "color": "#9e9e9e", "case_no": "2025타경52997", "usage": "기타", "appraisal": 10328413600, "min_bid": 10328413600, "fail_count": 0, "court": "성남지원", "address": "경기도 성남시 분당구 야탑동 402-10", "auction_date": "20260629", "geocode_failed": false}}, {"type": "Feature", "geometry": {"type": "Point", "coordinates": [127.1212854, 37.4164052]}, "properties": {"layer": "auction", "id": "B0002512025013005299712", "name": "2025타경52997", "category": "기타", "color": "#9e9e9e", "case_no": "2025타경52997", "usage": "기타", "appraisal": 10328413600, "min_bid": 10328413600, "fail_count": 0, "court": "성남지원", "address": "경기도 성남시 분당구 야탑동 402-10", "auction_date": "20260629", "geocode_failed": false}}, {"type": "Feature", "geometry": {"type": "Point", "coordinates": [127.1206984, 37.4163648]}, "properties": {"layer": "auction", "id": "B0002512025013005299723", "name": "2025타경52997", "category": "기타", "color": "#9e9e9e", "case_no": "2025타경52997", "usage": "기타", "appraisal": 15267762200, "min_bid": 15267762200, "fail_count": 0, "court": "성남지원", "address": "경기도 성남시 분당구 야탑동 402-12", "auction_date": "20260629", "geocode_failed": false}}, {"type": "Feature", "geometry": {"type": "Point", "coordinates": [127.1207788, 37.4162483]}, "properties": {"layer": "auction", "id": "B0002512025013005299724", "name": "2025타경52997", "category": "기타", "color": "#9e9e9e", "case_no": "2025타경52997", "usage": "기타", "appraisal": 15267762200, "min_bid": 15267762200, "fail_count": 0, "court": "성남지원", "address": "경기도 성남시 분당구 야탑동 402-13", "auction_date": "20260629", "geocode_failed": false}}, {"type": "Feature", "geometry": {"type": "Point", "coordinates": [127.1208707, 37.4161228]}, "properties": {"layer": "auction", "id": "B0002512025013005299725", "name": "2025타경52997", "category": "기타", "color": "#9e9e9e", "case_no": "2025타경52997", "usage": "기타", "appraisal": 15267762200, "min_bid": 15267762200, "fail_count": 0, "court": "성남지원", "address": "경기도 성남시 분당구 야탑동 402-14", "auction_date": "20260629", "geocode_failed": false}}, {"type": "Feature", "geometry": {"type": "Point", "coordinates": [127.1209511, 37.4160063]}, "properties": {"layer": "auction", "id": "B0002512025013005299726", "name": "2025타경52997", "category": "기타", "color": "#9e9e9e", "case_no": "2025타경52997", "usage": "기타", "appraisal": 15267762200, "min_bid": 15267762200, "fail_count": 0, "court": "성남지원", "address": "경기도 성남시 분당구 야탑동 402-15", "auction_date": "20260629", "geocode_failed": false}}, {"type": "Feature", "geometry": {"type": "Point", "coordinates": [127.1210315, 37.4158897]}, "properties": {"layer": "auction", "id": "B0002512025013005299727", "name": "2025타경52997", "category": "기타", "color": "#9e9e9e", "case_no": "2025타경52997", "usage": "기타", "appraisal": 15267762200, "min_bid": 15267762200, "fail_count": 0, "court": "성남지원", "address": "경기도 성남시 분당구 야탑동 402-16", "auction_date": "20260629", "geocode_failed": false}}, {"type": "Feature", "geometry": {"type": "Point", "coordinates": [127.121112, 37.4157732]}, "properties": {"layer": "auction", "id": "B0002512025013005299728", "name": "2025타경52997", "category": "기타", "color": "#9e9e9e", "case_no": "2025타경52997", "usage": "기타", "appraisal": 15267762200, "min_bid": 15267762200, "fail_count": 0, "court": "성남지원", "address": "경기도 성남시 분당구 야탑동 402-17", "auction_date": "20260629", "geocode_failed": false}}, {"type": "Feature", "geometry": {"type": "Point", "coordinates": [127.1206984, 37.4163648]}, "properties": {"layer": "auction", "id": "B0002512025013005299729", "name": "2025타경52997", "category": "기타", "color": "#9e9e9e", "case_no": "2025타경52997", "usage": "기타", "appraisal": 15267762200, "min_bid": 15267762200, "fail_count": 0, "court": "성남지원", "address": "경기도 성남시 분당구 야탑동 402-12", "auction_date": "20260629", "geocode_failed": false}}, {"type": "Feature", "geometry": {"type": "Point", "coordinates": [127.1052202, 37.3622203]}, "properties": {"layer": "auction", "id": "B0002512025013005304211", "name": "2025타경53042", "category": "상업/업무", "color": "#2196f3", "case_no": "2025타경53042", "usage": "오피스텔", "appraisal": 220000000, "min_bid": 220000000, "fail_count": 1, "court": "성남지원", "address": "경기도 성남시 분당구 정자동 162-2 정자동3차푸르지오시티 비동 29층2904호", "auction_date": "20260706", "geocode_failed": false}}, {"type": "Feature", "geometry": {"type": "Point", "coordinates": [127.1127151, 37.3526982]}, "properties": {"layer": "auction", "id": "B0002512025013005307211", "name": "2025타경53072", "category": "상업/업무", "color": "#2196f3", "case_no": "2025타경53072", "usage": "상가,오피스텔,근린시설", "appraisal": 1950000000, "min_bid": 1950000000, "fail_count": 0, "court": "성남지원", "address": "경기도 성남시 분당구 금곡동 133-1 2층201호", "auction_date": "20260706", "geocode_failed": false}}, {"type": "Feature", "geometry": {"type": "Point", "coordinates": [127.1127151, 37.3526982]}, "properties": {"layer": "auction", "id": "B0002512025013005307222", "name": "2025타경53072", "category": "상업/업무", "color": "#2196f3", "case_no": "2025타경53072", "usage": "상가,오피스텔,근린시설", "appraisal": 746000000, "min_bid": 746000000, "fail_count": 0, "court": "성남지원", "address": "경기도 성남시 분당구 금곡동 133-1 3층301호", "auction_date": "20260706", "geocode_failed": false}}, {"type": "Feature", "geometry": {"type": "Point", "coordinates": [127.1080847, 37.3404897]}, "properties": {"layer": "auction", "id": "B0002512025013005307911", "name": "2025타경53079", "category": "상업/업무", "color": "#2196f3", "case_no": "2025타경53079", "usage": "오피스텔", "appraisal": 181000000, "min_bid": 181000000, "fail_count": 1, "court": "성남지원", "address": "경기도 성남시 분당구 구미동 156 포스빌 7층791호", "auction_date": "20260706", "geocode_failed": false}}, {"type": "Feature", "geometry": {"type": "Point", "coordinates": [127.0611559, 37.3634291]}, "properties": {"layer": "auction", "id": "B0002512025013005311511", "name": "2025타경53115", "category": "토지", "color": "#4caf50", "case_no": "2025타경53115", "usage": "전답", "appraisal": 625732000, "min_bid": 625732000, "fail_count": 1, "court": "성남지원", "address": "경기도 성남시 분당구 대장동 364-1", "auction_date": "20260706", "geocode_failed": false}}, {"type": "Feature", "geometry": {"type": "Point", "coordinates": [127.0704986, 37.3748023]}, "properties": {"layer": "auction", "id": "B0002512025013005323711", "name": "2025타경53237", "category": "아파트", "color": "#e74c3c", "case_no": "2025타경53237", "usage": "아파트", "appraisal": 1133000000, "min_bid": 1133000000, "fail_count": 1, "court": "성남지원", "address": "경기도 성남시 분당구 대장동 592 판교퍼스트힐푸르지오1단지 103동 1층102호", "auction_date": "20260706", "geocode_failed": false}}, {"type": "Feature", "geometry": {"type": "Point", "coordinates": [127.1177905, 37.3800839]}, "properties": {"layer": "auction", "id": "B0002512025013005359811", "name": "2025타경53598", "category": "상업/업무", "color": "#2196f3", "case_no": "2025타경53598", "usage": "오피스텔", "appraisal": 230000000, "min_bid": 230000000, "fail_count": 0, "court": "성남지원", "address": "경기도 성남시 분당구 수내동 5-2 삼성보보스쉐르빌 13층1306호", "auction_date": "20260706", "geocode_failed": false}}, {"type": "Feature", "geometry": {"type": "Point", "coordinates": [127.1209431, 37.338207]}, "properties": {"layer": "auction", "id": "B0002512026013005005911", "name": "2026타경50059", "category": "아파트", "color": "#e74c3c", "case_no": "2026타경50059", "usage": "아파트", "appraisal": 1587000000, "min_bid": 1587000000, "fail_count": 0, "court": "성남지원", "address": "경기도 성남시 분당구 구미동 222 무지개마을삼성아파트 1005동 15층1504호", "auction_date": "20260706", "geocode_failed": false}}]}