{"type": "FeatureCollection", "meta": {"layer": "zone_redev", "source": "미확보 (실지정 정비구역 존재하나 무료 기계판독 경계 소스 없음)", "collected_at": "2026-07-10T11:05:00+09:00", "base_date": "2026-07-10", "count": 0, "region": "성남시 분당구 (bbox 127.06-127.16, 37.31-37.42)", "fact": "분당구에 실제 도시정비구역(특별정비구역)이 존재함: 노후계획도시정비특별법 선도지구가 2026.4 특별정비구역으로 지정·고시됨 — 시범단지현대우성(23구역), 샛별마을(31구역), 목련마을1(6구역), 양지마을(32구역) 및 결합개발 S3/S4/S6구역 등. 지정이 최신(2026.4)이라 전국 연속주제 공간데이터에는 미반영 가능성 높음.", "sources_tried": ["1) VWorld 데이터API(키 유효, LT_C_LHBLPN 성공 이력): WMS GetCapabilities 전체 레이어 카탈로그 스캔 + 데이터API 20여 개 후보 코드(LT_C_UM*/UI*/UQ161/UPISUQ161/UPISUQ171/UH701/UD601 등) 질의 → 도시정비구역(재개발/재건축/주거환경정비) 레이어 부재. 존재 레이어는 시장정비구역(LT_C_UB901, 전통시장)·주거환경개선지구도(실제 반환은 벤처기업육성촉진지구)·지구단위계획(LT_C_UPISUQ161)뿐으로 도시정비구역과 불일치.", "2) 로컬 auction_crawling/정비구역.geojson: 서울시 전용(위도 37.434-37.692, 전 2585피처 서울 자치구)로 분당구 범위 밖 → bbox 교차 0건.", "3) 토지이음(eum.go.kr)/성남시청 고시: 특별정비구역 지형도면이 PDF·이미지(위치도)로만 제공, 경계 좌표/지번 목록 기계판독 불가.", "4) 국가공간정보포털(NSDI) 오픈마켓 dataset/12709 '(연속주제)도시및주거환경정비/정비구역' SHP 존재하나 로그인·신청 승인 방식 다운로드(자동화 불가)이며 현 실행환경에서 data.nsdi.go.kr DNS 미해결."], "note": "코디네이터 지침에 따라 억지 geometry 생성 금지. 실지정 정비구역은 존재하나 무료·기계판독 경계 소스 미확보로 count:0 유지. 확보 경로 후보: (a) NSDI 오픈마켓 SHP 수동 승인 다운로드 후 EPSG:5186→WGS84 변환, (b) 성남시 고시 지형도면 PDF의 지번 목록을 VWorld 연속지적도(LP_PA_CBND) PNU 질의로 폴리곤 재구성(고비용)."}, "features": []}
