{"type":"FeatureCollection","meta":{"layer":"zone_redev","title":"신속통합기획 후보지(정보몽땅)","source":"서울시 정비사업 정보몽땅 후보지 목록·위치도 → 연속지적도(VWorld) 필지 선택으로 그린 구역 (참고용, 법적 효력 없음)","source_crs":"EPSG:4326","base_date":"2026-09-10","count":26,"count_drawn":0,"count_seed":26,"tool":"sintong_zone_editor"},"features":[{"type":"Feature","properties":{"layer":"zone_redev","id":"sintong26_00","name":"구로구 개봉동 66-15","subtype":"신속통합기획","stage":"후보지 선정 · 26년 수시선정구역","sido":"서울특별시","sigungu":"구로구","target_area_m2":109371.0,"zoning":"1종,2종(7),3종","img":"https://cleanup.seoul.go.kr/share/cleanup/img/content/gurogugaebongdong66-15.jpg","category":"신속통합기획 후보지 대표위치(면적 환산, 미작성)","color":"#f87171","area_m2":109371,"note":"대표지번 위치에 구역면적을 원으로 환산한 자리표시. 실제 경계는 구역 그리기 도구로 작성"},"geometry":{"type":"Polygon","coordinates":[[[126.8481027163272,37.50084],[126.84808464174615,37.50105877647784],[126.84803072726407,37.501273809629495],[126.84794189537271,37.50148142017811],[126.84781966601035,37.501678055849645],[126.84766613055528,37.50186035215324],[126.8474839160417,37.5020251899486],[126.84727614021044,37.502169748815334],[126.84704635816361,37.50229155531117],[126.84679850153572,37.502388525293185],[126.84653681122238,37.502458999578096],[126.84626576481743,37.50250177233136],[126.84599,37.50251611169929],[126.84571423518257,37.50250177233136],[126.84544318877762,37.502458999578096],[126.84518149846429,37.502388525293185],[126.84493364183639,37.50229155531117],[126.84470385978956,37.502169748815334],[126.8444960839583,37.5020251899486],[126.84431386944472,37.50186035215324],[126.84416033398965,37.501678055849645],[126.84403810462729,37.50148142017811],[126.84394927273593,37.501273809629495],[126.84389535825385,37.50105877647784],[126.8438772836728,37.50084],[126.84389535825385,37.50062122352215],[126.84394927273593,37.5004061903705],[126.84403810462729,37.500198579821884],[126.84416033398965,37.50000194415035],[126.84431386944472,37.499819647846756],[126.8444960839583,37.499654810051396],[126.84470385978956,37.49951025118466],[126.84493364183639,37.499388444688826],[126.84518149846429,37.49929147470681],[126.84544318877762,37.4992210004219],[126.84571423518257,37.49917822766864],[126.84599,37.4991638883007],[126.84626576481743,37.49917822766864],[126.84653681122238,37.4992210004219],[126.84679850153572,37.49929147470681],[126.84704635816361,37.499388444688826],[126.84727614021044,37.49951025118466],[126.8474839160417,37.499654810051396],[126.84766613055528,37.499819647846756],[126.84781966601035,37.50000194415035],[126.84794189537271,37.500198579821884],[126.84803072726407,37.5004061903705],[126.84808464174615,37.50062122352215],[126.8481027163272,37.50084]]]}},{"type":"Feature","properties":{"layer":"zone_redev","id":"sintong26_01","name":"구로구 구로동 792-3","subtype":"신속통합기획","stage":"후보지 선정 · 26년 수시선정구역","sido":"서울특별시","sigungu":"구로구","target_area_m2":58472.7,"zoning":"1종,2종,3종","img":"https://cleanup.seoul.go.kr/share/cleanup/img/content/gurodong792-3.jpg","category":"신속통합기획 후보지 대표위치(면적 환산, 미작성)","color":"#f87171","area_m2":58473,"note":"대표지번 위치에 구역면적을 원으로 환산한 자리표시. 실제 경계는 구역 그리기 도구로 작성"},"geometry":{"type":"Polygon","coordinates":[[[126.8900044882989,37.48673],[126.8899912749874,37.48688996541931],[126.88995186113631,37.48704719378593],[126.88988692112756,37.487198994878945],[126.8897975661027,37.48734277133954],[126.88968532495097,37.48747606311263],[126.88955211814961,37.48759658953902],[126.88940022490392,37.487702288378124],[126.88923224414945,37.48779135109351],[126.88905105008347,37.487862253797424],[126.8888597429867,37.48791378332495],[126.88866159617658,37.487945057991574],[126.88846,37.48795554267908],[126.88825840382341,37.487945057991574],[126.8880602570133,37.48791378332495],[126.88786894991652,37.487862253797424],[126.88768775585054,37.48779135109351],[126.88751977509607,37.487702288378124],[126.88736788185038,37.48759658953902],[126.88723467504902,37.48747606311263],[126.88712243389729,37.48734277133954],[126.88703307887243,37.487198994878945],[126.88696813886368,37.48704719378593],[126.8869287250126,37.48688996541931],[126.88691551170109,37.48673],[126.8869287250126,37.486570034580694],[126.88696813886368,37.48641280621407],[126.88703307887243,37.48626100512106],[126.88712243389729,37.48611722866046],[126.88723467504902,37.48598393688737],[126.88736788185038,37.485863410460986],[126.88751977509607,37.48575771162188],[126.88768775585054,37.48566864890649],[126.88786894991652,37.48559774620258],[126.8880602570133,37.485546216675054],[126.88825840382341,37.48551494200843],[126.88846,37.48550445732092],[126.88866159617658,37.48551494200843],[126.8888597429867,37.485546216675054],[126.88905105008347,37.48559774620258],[126.88923224414945,37.48566864890649],[126.88940022490392,37.48575771162188],[126.88955211814961,37.485863410460986],[126.88968532495097,37.48598393688737],[126.8897975661027,37.48611722866046],[126.88988692112756,37.48626100512106],[126.88995186113631,37.48641280621407],[126.8899912749874,37.486570034580694],[126.8900044882989,37.48673]]]}},{"type":"Feature","properties":{"layer":"zone_redev","id":"sintong26_02","name":"은평구 불광동 442","subtype":"신속통합기획","stage":"후보지 선정 · 26년 수시선정구역","sido":"서울특별시","sigungu":"은평구","target_area_m2":109364.8,"zoning":"1종,2종","img":"https://cleanup.seoul.go.kr/share/cleanup/img/content/bulguangdong442.jpg","category":"신속통합기획 후보지 대표위치(면적 환산, 미작성)","color":"#f87171","area_m2":109365,"note":"대표지번 위치에 구역면적을 원으로 환산한 자리표시. 실제 경계는 구역 그리기 도구로 작성"},"geometry":{"type":"Polygon","coordinates":[[[126.92781616293149,37.62439],[126.92779805886425,37.62460877027678],[126.92774405642817,37.62482379733347],[126.92765507961987,37.62503140199751],[126.92753265085722,37.62522803209554],[126.9273788649303,37.62541032323208],[126.92719635315896,37.625575156355225],[126.9269882383702,37.625719711124546],[126.92675808146575,37.62584151416786],[126.92650982049408,37.62593848140133],[126.92624770326921,37.6260089536887],[126.92597621468957,37.626051725229594],[126.9257,37.62606606419109],[126.92542378531044,37.626051725229594],[126.9251522967308,37.6260089536887],[126.92489017950594,37.62593848140133],[126.92464191853426,37.62584151416786],[126.92441176162981,37.625719711124546],[126.92420364684105,37.625575156355225],[126.92402113506971,37.62541032323208],[126.9238673491428,37.62522803209554],[126.92374492038014,37.62503140199751],[126.92365594357184,37.62482379733347],[126.92360194113576,37.62460877027678],[126.92358383706852,37.62439],[126.92360194113576,37.62417122972322],[126.92365594357184,37.62395620266653],[126.92374492038014,37.623748598002486],[126.9238673491428,37.623551967904454],[126.92402113506971,37.623369676767915],[126.92420364684105,37.62320484364477],[126.92441176162981,37.62306028887545],[126.92464191853426,37.62293848583214],[126.92489017950594,37.62284151859867],[126.9251522967308,37.6227710463113],[126.92542378531044,37.6227282747704],[126.9257,37.6227139358089],[126.92597621468957,37.6227282747704],[126.92624770326921,37.6227710463113],[126.92650982049408,37.62284151859867],[126.92675808146575,37.62293848583214],[126.9269882383702,37.62306028887545],[126.92719635315896,37.62320484364477],[126.9273788649303,37.623369676767915],[126.92753265085722,37.623551967904454],[126.92765507961987,37.623748598002486],[126.92774405642817,37.62395620266653],[126.92779805886425,37.62417122972322],[126.92781616293149,37.62439]]]}},{"type":"Feature","properties":{"layer":"zone_redev","id":"sintong26_03","name":"은평구 불광동 445","subtype":"신속통합기획","stage":"후보지 선정 · 26년 수시선정구역","sido":"서울특별시","sigungu":"은평구","target_area_m2":89536.8,"zoning":"1종,3종","img":"https://cleanup.seoul.go.kr/share/cleanup/img/content/bulguangdong445.jpg","category":"신속통합기획 후보지 대표위치(면적 환산, 미작성)","color":"#f87171","area_m2":89537,"note":"대표지번 위치에 구역면적을 원으로 환산한 자리표시. 실제 경계는 구역 그리기 도구로 작성"},"geometry":{"type":"Polygon","coordinates":[[[126.92594480212578,37.62658],[126.92592842072816,37.62677794763582],[126.92587955682552,37.62697250833271],[126.92579904649281,37.62716035310321],[126.92568826728414,37.6273382678712],[126.92554911466249,37.62750320846569],[126.92538396956778,37.62765235270737],[126.92519565767836,37.62778314869691],[126.9249874010629,37.62789335847868],[126.9247627630498,37.62798109633274],[126.92452558725776,37.62804486104009],[126.92427993183034,37.62808356156891],[126.92403,37.628096535742415],[126.92378006816966,37.62808356156891],[126.92353441274224,37.62804486104009],[126.9232972369502,37.62798109633274],[126.92307259893711,37.62789335847868],[126.92286434232165,37.62778314869691],[126.92267603043223,37.62765235270737],[126.92251088533752,37.62750320846569],[126.92237173271586,37.6273382678712],[126.92226095350719,37.62716035310321],[126.92218044317448,37.62697250833271],[126.92213157927185,37.62677794763582],[126.92211519787422,37.62658],[126.92213157927185,37.62638205236417],[126.92218044317448,37.62618749166728],[126.92226095350719,37.62599964689679],[126.92237173271586,37.62582173212879],[126.92251088533752,37.625656791534304],[126.92267603043223,37.62550764729262],[126.92286434232165,37.62537685130308],[126.92307259893711,37.625266641521314],[126.9232972369502,37.625178903667255],[126.92353441274224,37.625115138959906],[126.92378006816966,37.62507643843109],[126.92403,37.62506346425758],[126.92427993183034,37.62507643843109],[126.92452558725776,37.625115138959906],[126.9247627630498,37.625178903667255],[126.9249874010629,37.625266641521314],[126.92519565767836,37.62537685130308],[126.92538396956778,37.62550764729262],[126.92554911466249,37.625656791534304],[126.92568826728414,37.62582173212879],[126.92579904649281,37.62599964689679],[126.92587955682552,37.62618749166728],[126.92592842072816,37.62638205236417],[126.92594480212578,37.62658]]]}},{"type":"Feature","properties":{"layer":"zone_redev","id":"sintong26_04","name":"서대문구 옥천동 123-2","subtype":"신속통합기획","stage":"후보지 선정 · 26년 수시선정구역","sido":"서울특별시","sigungu":"서대문구","target_area_m2":9863.5,"zoning":"2종(7),3종","img":"https://cleanup.seoul.go.kr/share/cleanup/img/content/okchunddong123-2.jpg","category":"신속통합기획 후보지 대표위치(면적 환산, 미작성)","color":"#f87171","area_m2":9864,"note":"대표지번 위치에 구역면적을 원으로 환산한 자리표시. 실제 경계는 구역 그리기 도구로 작성"},"geometry":{"type":"Polygon","coordinates":[[[126.96092505059819,37.56999],[126.9609196176523,37.570055699953045],[126.9609034117738,37.570120275761674],[126.96087671024978,37.57018262251591],[126.96083996995073,37.57024167344549],[126.96079381951334,37.57029641817263],[126.96073904858439,37.570345919999895],[126.96067659430965,37.57038933193728],[126.9606075252991,37.5704259111945],[126.96053302334265,37.570455031890326],[126.96045436318941,37.57047619576157],[126.96037289073645,37.57048904068854],[126.96029,37.57049334689097],[126.96020710926355,37.57048904068854],[126.96012563681059,37.57047619576157],[126.96004697665735,37.570455031890326],[126.9599724747009,37.5704259111945],[126.95990340569035,37.57038933193728],[126.95984095141561,37.570345919999895],[126.95978618048666,37.57029641817263],[126.95974003004928,37.57024167344549],[126.95970328975022,37.57018262251591],[126.9596765882262,37.570120275761674],[126.9596603823477,37.570055699953045],[126.95965494940181,37.56999],[126.9596603823477,37.56992430004695],[126.9596765882262,37.56985972423832],[126.95970328975022,37.569797377484086],[126.95974003004928,37.56973832655451],[126.95978618048666,37.56968358182736],[126.95984095141561,37.5696340800001],[126.95990340569035,37.569590668062716],[126.9599724747009,37.569554088805496],[126.96004697665735,37.56952496810967],[126.96012563681059,37.56950380423842],[126.96020710926355,37.56949095931145],[126.96029,37.569486653109024],[126.96037289073645,37.56949095931145],[126.96045436318941,37.56950380423842],[126.96053302334265,37.56952496810967],[126.9606075252991,37.569554088805496],[126.96067659430965,37.569590668062716],[126.96073904858439,37.5696340800001],[126.96079381951334,37.56968358182736],[126.96083996995073,37.56973832655451],[126.96087671024978,37.569797377484086],[126.9609034117738,37.56985972423832],[126.9609196176523,37.56992430004695],[126.96092505059819,37.56999]]]}},{"type":"Feature","properties":{"layer":"zone_redev","id":"sintong26_05","name":"광진구 구의동 46","subtype":"신속통합기획","stage":"후보지 선정 · 26년 수시선정구역","sido":"서울특별시","sigungu":"광진구","target_area_m2":105957.2,"zoning":"1종,2종(7),3종","img":"https://cleanup.seoul.go.kr/share/cleanup/img/content/guidong46.jpg","category":"신속통합기획 후보지 대표위치(면적 환산, 미작성)","color":"#f87171","area_m2":105957,"note":"대표지번 위치에 구역면적을 원으로 환산한 자리표시. 실제 경계는 구역 그리기 도구로 작성"},"geometry":{"type":"Polygon","coordinates":[[[127.09595088931962,37.55128],[127.09593308702303,37.55149533507271],[127.09587998473548,37.55170698570263],[127.09579249105182,37.551911330488785],[127.09567210301326,37.55210487303525],[127.0955208804925,37.55228430177538],[127.0953414109488,37.55244654663368],[127.09513676515581,37.55258883155566],[127.0949104446598,37.55270872200685],[127.0946663218672,37.55280416662838],[127.09440857378667,37.552873532336314],[127.09414161055932,37.55291563226417],[127.09387,37.5529297460705],[127.09359838944067,37.55291563226417],[127.09333142621333,37.552873532336314],[127.0930736781328,37.55280416662838],[127.09282955534019,37.55270872200685],[127.09260323484418,37.55258883155566],[127.09239858905119,37.55244654663368],[127.09221911950749,37.55228430177538],[127.09206789698673,37.55210487303525],[127.09194750894817,37.551911330488785],[127.09186001526452,37.55170698570263],[127.09180691297696,37.55149533507271],[127.09178911068037,37.55128],[127.09180691297696,37.55106466492729],[127.09186001526452,37.55085301429737],[127.09194750894817,37.55064866951121],[127.09206789698673,37.55045512696475],[127.09221911950749,37.55027569822462],[127.09239858905119,37.550113453366315],[127.09260323484418,37.54997116844434],[127.09282955534019,37.54985127799315],[127.0930736781328,37.54975583337162],[127.09333142621333,37.54968646766368],[127.09359838944067,37.54964436773583],[127.09387,37.5496302539295],[127.09414161055932,37.54964436773583],[127.09440857378667,37.54968646766368],[127.0946663218672,37.54975583337162],[127.0949104446598,37.54985127799315],[127.09513676515581,37.54997116844434],[127.0953414109488,37.550113453366315],[127.0955208804925,37.55027569822462],[127.09567210301326,37.55045512696475],[127.09579249105182,37.55064866951121],[127.09587998473548,37.55085301429737],[127.09593308702303,37.55106466492729],[127.09595088931962,37.55128]]]}},{"type":"Feature","properties":{"layer":"zone_redev","id":"sintong26_06","name":"용답동 15일대","subtype":"신속통합기획","stage":"후보지 선정 · 26년 수시선정구역","sido":"서울특별시","sigungu":null,"target_area_m2":95889.5,"zoning":"2종, 준주거","img":"https://cleanup.seoul.go.kr/share/cleanup/img/content/guidong46.jpg","category":"신속통합기획 후보지 대표위치(면적 환산, 미작성)","color":"#f87171","area_m2":95890,"note":"대표지번 위치에 구역면적을 원으로 환산한 자리표시. 실제 경계는 구역 그리기 도구로 작성"},"geometry":{"type":"Polygon","coordinates":[[[127.05739987837197,37.56316],[127.05738294023804,37.56336484957241],[127.0573324156524,37.56356619411183],[127.05724916910472,37.56376058855738],[127.05713462496654,37.5639447067662],[127.05699074311977,37.56411539842469],[127.05681998542275,37.56426974295125],[127.05662527358699,37.56440509946823],[127.05640993918598,37.5645191519881],[127.05617766665105,37.56460994904063],[127.05593243022965,37.56467593706307],[127.05567842598495,37.56471598698207],[127.05542,37.5647294135324],[127.05516157401505,37.56471598698207],[127.05490756977035,37.56467593706307],[127.05466233334894,37.56460994904063],[127.05443006081401,37.5645191519881],[127.05421472641301,37.56440509946823],[127.05402001457725,37.56426974295125],[127.05384925688023,37.56411539842469],[127.05370537503346,37.5639447067662],[127.05359083089527,37.56376058855738],[127.0535075843476,37.56356619411183],[127.05345705976195,37.56336484957241],[127.05344012162803,37.56316],[127.05345705976195,37.5629551504276],[127.0535075843476,37.56275380588818],[127.05359083089527,37.56255941144263],[127.05370537503346,37.562375293233806],[127.05384925688023,37.56220460157532],[127.05402001457725,37.56205025704876],[127.05421472641301,37.561914900531775],[127.05443006081401,37.561800848011906],[127.05466233334894,37.56171005095938],[127.05490756977035,37.561644062936935],[127.05516157401505,37.561604013017934],[127.05542,37.56159058646761],[127.05567842598495,37.561604013017934],[127.05593243022965,37.561644062936935],[127.05617766665105,37.56171005095938],[127.05640993918598,37.561800848011906],[127.05662527358699,37.561914900531775],[127.05681998542275,37.56205025704876],[127.05699074311977,37.56220460157532],[127.05713462496654,37.562375293233806],[127.05724916910472,37.56255941144263],[127.0573324156524,37.56275380588818],[127.05738294023804,37.5629551504276],[127.05739987837197,37.56316]]]}},{"type":"Feature","properties":{"layer":"zone_redev","id":"sintong26_07","name":"창동 608일대","subtype":"신속통합기획","stage":"후보지 선정 · 26년 수시선정구역","sido":"서울특별시","sigungu":null,"target_area_m2":66395.8,"zoning":"준공업","img":"https://cleanup.seoul.go.kr/share/cleanup/img/content/changdong608.png","category":"신속통합기획 후보지 대표위치(면적 환산, 미작성)","color":"#f87171","area_m2":66396,"note":"대표지번 위치에 구역면적을 원으로 환산한 자리표시. 실제 경계는 구역 그리기 도구로 작성"},"geometry":{"type":"Polygon","coordinates":[[[127.04126932339116,37.64581],[127.04125521320091,37.6459804589617],[127.04121312405942,37.64614800132331],[127.04114377612359,37.64630976038857],[127.04104835595581,37.646462968415015],[127.0409284962216,37.64660500397084],[127.04078624775426,37.64673343678832],[127.04062404446451,37.64684606934631],[127.04044466169557,37.646940974470546],[127.0402511687364,37.647016528308015],[127.04004687630517,37.64707143811163],[127.039835279902,37.64710476435941],[127.03962,37.64711593683003],[127.039404720098,37.64710476435941],[127.03919312369483,37.64707143811163],[127.0389888312636,37.647016528308015],[127.03879533830442,37.646940974470546],[127.03861595553549,37.64684606934631],[127.03845375224574,37.64673343678832],[127.0383115037784,37.64660500397084],[127.03819164404419,37.646462968415015],[127.03809622387641,37.64630976038857],[127.03802687594057,37.64614800132331],[127.03798478679909,37.6459804589617],[127.03797067660884,37.64581],[127.03798478679909,37.64563954103829],[127.03802687594057,37.64547199867668],[127.03809622387641,37.645310239611426],[127.03819164404419,37.64515703158498],[127.0383115037784,37.645014996029154],[127.03845375224574,37.64488656321168],[127.03861595553549,37.644773930653685],[127.03879533830442,37.64467902552945],[127.0389888312636,37.64460347169198],[127.03919312369483,37.644548561888364],[127.039404720098,37.64451523564058],[127.03962,37.64450406316996],[127.039835279902,37.64451523564058],[127.04004687630517,37.644548561888364],[127.0402511687364,37.64460347169198],[127.04044466169557,37.64467902552945],[127.04062404446451,37.644773930653685],[127.04078624775426,37.64488656321168],[127.0409284962216,37.645014996029154],[127.04104835595581,37.64515703158498],[127.04114377612359,37.645310239611426],[127.04121312405942,37.64547199867668],[127.04125521320091,37.64563954103829],[127.04126932339116,37.64581]]]}},{"type":"Feature","properties":{"layer":"zone_redev","id":"sintong26_08","name":"중곡동 232-1","subtype":"신속통합기획","stage":"후보지 선정 · 26년 수시선정구역","sido":"서울특별시","sigungu":null,"target_area_m2":63963.3,"zoning":"1종,2종(7),2종","img":"https://cleanup.seoul.go.kr/share/cleanup/img/content/jungkokdong232_1.png","category":"신속통합기획 후보지 대표위치(면적 환산, 미작성)","color":"#f87171","area_m2":63963,"note":"대표지번 위치에 구역면적을 원으로 환산한 자리표시. 실제 경계는 구역 그리기 도구로 작성"},"geometry":{"type":"Polygon","coordinates":[[[127.0815370777108,37.5653],[127.08152324338683,37.56546730732889],[127.08148197712399,37.56563175198299],[127.0814139849995,37.565790520268685],[127.08132043037746,37.565940895616585],[127.08120291400338,37.5660803050628],[127.08106344661502,37.56620636327305],[127.08090441453805,37.566316913356395],[127.08072853885541,37.56641006377028],[127.08053882884877,37.56648422068528],[127.08033853050897,37.56653811525604],[127.08013107099612,37.56657082533148],[127.07992,37.566581791233176],[127.07970892900389,37.56657082533148],[127.07950146949103,37.56653811525604],[127.07930117115123,37.56648422068528],[127.07911146114459,37.56641006377028],[127.07893558546195,37.566316913356395],[127.07877655338498,37.56620636327305],[127.07863708599662,37.5660803050628],[127.07851956962254,37.565940895616585],[127.0784260150005,37.565790520268685],[127.07835802287602,37.56563175198299],[127.07831675661318,37.56546730732889],[127.0783029222892,37.5653],[127.07831675661318,37.56513269267111],[127.07835802287602,37.56496824801701],[127.0784260150005,37.564809479731316],[127.07851956962254,37.564659104383416],[127.07863708599662,37.564519694937204],[127.07877655338498,37.564393636726955],[127.07893558546195,37.564283086643606],[127.07911146114459,37.564189936229724],[127.07930117115123,37.56411577931472],[127.07950146949103,37.564061884743964],[127.07970892900389,37.56402917466852],[127.07992,37.564018208766825],[127.08013107099612,37.56402917466852],[127.08033853050897,37.564061884743964],[127.08053882884877,37.56411577931472],[127.08072853885541,37.564189936229724],[127.08090441453805,37.564283086643606],[127.08106344661502,37.564393636726955],[127.08120291400338,37.564519694937204],[127.08132043037746,37.564659104383416],[127.0814139849995,37.564809479731316],[127.08148197712399,37.56496824801701],[127.08152324338683,37.56513269267111],[127.0815370777108,37.5653]]]}},{"type":"Feature","properties":{"layer":"zone_redev","id":"sintong26_09","name":"신월1동 229일대","subtype":"신속통합기획","stage":"후보지 선정 · 26년 수시선정구역","sido":"서울특별시","sigungu":null,"target_area_m2":57832.4,"zoning":"1종,2종(7)","img":"https://cleanup.seoul.go.kr/share/cleanup/img/content/shinwal1dong229.png","category":"신속통합기획 후보지 대표위치(면적 환산, 미작성)","color":"#f87171","area_m2":57832,"note":"대표지번 위치에 구역면적을 원으로 환산한 자리표시. 실제 경계는 구역 그리기 도구로 작성"},"geometry":{"type":"Polygon","coordinates":[[[126.838216886483,37.52938],[126.83820373820609,37.52953908716497],[126.838164518346,37.52969545230443],[126.83809989796544,37.529846419967505],[126.83801098273702,37.52998940705562],[126.83789929402494,37.53012196702006],[126.83776674285404,37.53024183172307],[126.83761559721161,37.53034695024635],[126.8374484432415,37.530435523982824],[126.83726814099447,37.530506037411314],[126.83707777549196,37.530557284027495],[126.8368806039405,37.53058838698756],[126.83668,37.530598814111244],[126.8364793960595,37.53058838698756],[126.83628222450804,37.530557284027495],[126.83609185900553,37.530506037411314],[126.8359115567585,37.530435523982824],[126.8357444027884,37.53034695024635],[126.83559325714596,37.53024183172307],[126.83546070597507,37.53012196702006],[126.83534901726298,37.52998940705562],[126.83526010203457,37.529846419967505],[126.835195481654,37.52969545230443],[126.83515626179391,37.52953908716497],[126.835143113517,37.52938],[126.83515626179391,37.52922091283504],[126.835195481654,37.529064547695576],[126.83526010203457,37.5289135800325],[126.83534901726298,37.52877059294438],[126.83546070597507,37.52863803297995],[126.83559325714596,37.52851816827694],[126.8357444027884,37.52841304975366],[126.8359115567585,37.52832447601718],[126.83609185900553,37.52825396258869],[126.83628222450804,37.52820271597251],[126.8364793960595,37.52817161301245],[126.83668,37.52816118588876],[126.8368806039405,37.52817161301245],[126.83707777549196,37.52820271597251],[126.83726814099447,37.52825396258869],[126.8374484432415,37.52832447601718],[126.83761559721161,37.52841304975366],[126.83776674285404,37.52851816827694],[126.83789929402494,37.52863803297995],[126.83801098273702,37.52877059294438],[126.83809989796544,37.5289135800325],[126.838164518346,37.529064547695576],[126.83820373820609,37.52922091283504],[126.838216886483,37.52938]]]}},{"type":"Feature","properties":{"layer":"zone_redev","id":"sintong26_10","name":"용산동2가 44-3","subtype":"신속통합기획","stage":"후보지 선정 · 26년 수시선정구역","sido":"서울특별시","sigungu":null,"target_area_m2":73070.5,"zoning":"1종","img":"https://cleanup.seoul.go.kr/share/cleanup/img/content/yongsandong2ga44_3.png","category":"신속통합기획 후보지 대표위치(면적 환산, 미작성)","color":"#f87171","area_m2":73070,"note":"대표지번 위치에 구역면적을 원으로 환산한 자리표시. 실제 경계는 구역 그리기 도구로 작성"},"geometry":{"type":"Polygon","coordinates":[[[126.98838782258137,37.54173],[126.98837304081967,37.54190882184618],[126.9883289484546,37.54208458400099],[126.98825629991873,37.54225427912523],[126.9881563382487,37.54241500368828],[126.98803077381636,37.54256400764831],[126.98788175506397,37.54269874150624],[126.98771183174371,37.54281689992842],[126.98752391129068,37.542916461191474],[126.98732120907596,37.542995721774595],[126.98710719339061,37.54305332550722],[126.98688552610238,37.54308828677353],[126.98666,37.54310000737656],[126.98643447389762,37.54308828677353],[126.98621280660939,37.54305332550722],[126.98599879092404,37.542995721774595],[126.98579608870932,37.542916461191474],[126.98560816825629,37.54281689992842],[126.98543824493603,37.54269874150624],[126.98528922618364,37.54256400764831],[126.9851636617513,37.54241500368828],[126.98506370008127,37.54225427912523],[126.9849910515454,37.54208458400099],[126.98494695918033,37.54190882184618],[126.98493217741863,37.54173],[126.98494695918033,37.541551178153824],[126.9849910515454,37.54137541599901],[126.98506370008127,37.54120572087477],[126.9851636617513,37.54104499631172],[126.98528922618364,37.54089599235169],[126.98543824493603,37.54076125849376],[126.98560816825629,37.540643100071584],[126.98579608870932,37.54054353880853],[126.98599879092404,37.54046427822541],[126.98621280660939,37.54040667449278],[126.98643447389762,37.54037171322647],[126.98666,37.54035999262344],[126.98688552610238,37.54037171322647],[126.98710719339061,37.54040667449278],[126.98732120907596,37.54046427822541],[126.98752391129068,37.54054353880853],[126.98771183174371,37.540643100071584],[126.98788175506397,37.54076125849376],[126.98803077381636,37.54089599235169],[126.9881563382487,37.54104499631172],[126.98825629991873,37.54120572087477],[126.9883289484546,37.54137541599901],[126.98837304081967,37.541551178153824],[126.98838782258137,37.54173]]]}},{"type":"Feature","properties":{"layer":"zone_redev","id":"sintong26_11","name":"원효로4가 110-1일대","subtype":"신속통합기획","stage":"후보지 선정 · 26년 수시선정구역","sido":"서울특별시","sigungu":null,"target_area_m2":14526.0,"zoning":"2종","img":"https://cleanup.seoul.go.kr/share/cleanup/img/content/wonhyoro4ga110_1.png","category":"신속통합기획 후보지 대표위치(면적 환산, 미작성)","color":"#f87171","area_m2":14526,"note":"대표지번 위치에 구역면적을 원으로 환산한 자리표시. 실제 경계는 구역 그리기 도구로 작성"},"geometry":{"type":"Polygon","coordinates":[[[126.95465028077513,37.53279],[126.95464369091631,37.53286973014513],[126.9546240340942,37.53294809608537],[126.95459164664243,37.53302375695776],[126.9545470827193,37.53309541818379],[126.9544911048259,37.53316185362002],[126.95442467075951,37.53322192653771],[126.9543489172254,37.5332746090726],[126.95426514038756,37.53331899981188],[126.95417477369091,37.53335433921773],[126.95407936333467,37.53338002262309],[126.95398054181652,37.533395610577784],[126.95388,37.53340083636758],[126.95377945818348,37.533395610577784],[126.95368063666533,37.53338002262309],[126.95358522630909,37.53335433921773],[126.95349485961243,37.53331899981188],[126.9534110827746,37.5332746090726],[126.95333532924049,37.53322192653771],[126.95326889517409,37.53316185362002],[126.9532129172807,37.53309541818379],[126.95316835335757,37.53302375695776],[126.9531359659058,37.53294809608537],[126.95311630908368,37.53286973014513],[126.95310971922487,37.53279],[126.95311630908368,37.53271026985487],[126.9531359659058,37.53263190391463],[126.95316835335757,37.53255624304224],[126.9532129172807,37.532484581816206],[126.95326889517409,37.532418146379975],[126.95333532924049,37.532358073462284],[126.9534110827746,37.5323053909274],[126.95349485961243,37.532261000188115],[126.95358522630909,37.53222566078227],[126.95368063666533,37.532199977376905],[126.95377945818348,37.53218438942221],[126.95388,37.532179163632414],[126.95398054181652,37.53218438942221],[126.95407936333467,37.532199977376905],[126.95417477369091,37.53222566078227],[126.95426514038756,37.532261000188115],[126.9543489172254,37.5323053909274],[126.95442467075951,37.532358073462284],[126.9544911048259,37.532418146379975],[126.9545470827193,37.532484581816206],[126.95459164664243,37.53255624304224],[126.9546240340942,37.53263190391463],[126.95464369091631,37.53271026985487],[126.95465028077513,37.53279]]]}},{"type":"Feature","properties":{"layer":"zone_redev","id":"sintong26_12","name":"수유동 442-10일대","subtype":"신속통합기획","stage":"후보지 선정 · 26년 수시선정구역","sido":"서울특별시","sigungu":null,"target_area_m2":41731.0,"zoning":"2종","img":"https://cleanup.seoul.go.kr/share/cleanup/img/content/suyudong442_10.png","category":"신속통합기획 후보지 대표위치(면적 환산, 미작성)","color":"#f87171","area_m2":41731,"note":"대표지번 위치에 구역면적을 원으로 환산한 자리표시. 실제 경계는 구역 그리기 도구로 작성"},"geometry":{"type":"Polygon","coordinates":[[[127.01776737840744,37.63493],[127.01775619360392,37.63506513844914],[127.01772283056847,37.635197964641954],[127.01766786015187,37.63532620588545],[127.0175922229132,37.6354476679364],[127.01749721302656,37.635560272545426],[127.01738445613748,37.63566209301646],[127.01725588154757,37.635751387173],[127.01711368920371,37.63582662716729],[127.01696031205636,37.63588652562215],[127.01679837443099,37.63593005765841],[127.01663064712531,37.63595647843088],[127.01646,37.6359653358728],[127.01628935287468,37.63595647843088],[127.016121625569,37.63593005765841],[127.01595968794364,37.63588652562215],[127.01580631079628,37.63582662716729],[127.01566411845242,37.635751387173],[127.01553554386251,37.63566209301646],[127.01542278697343,37.635560272545426],[127.0153277770868,37.6354476679364],[127.01525213984812,37.63532620588545],[127.01519716943152,37.635197964641954],[127.01516380639607,37.63506513844914],[127.01515262159255,37.63493],[127.01516380639607,37.63479486155085],[127.01519716943152,37.63466203535804],[127.01525213984812,37.634533794114546],[127.0153277770868,37.6344123320636],[127.01542278697343,37.63429972745457],[127.01553554386251,37.63419790698354],[127.01566411845242,37.63410861282699],[127.01580631079628,37.634033372832704],[127.01595968794364,37.63397347437785],[127.016121625569,37.63392994234158],[127.01628935287468,37.63390352156912],[127.01646,37.6338946641272],[127.01663064712531,37.63390352156912],[127.01679837443099,37.63392994234158],[127.01696031205636,37.63397347437785],[127.01711368920371,37.634033372832704],[127.01725588154757,37.63410861282699],[127.01738445613748,37.63419790698354],[127.01749721302656,37.63429972745457],[127.0175922229132,37.6344123320636],[127.01766786015187,37.634533794114546],[127.01772283056847,37.63466203535804],[127.01775619360392,37.63479486155085],[127.01776737840744,37.63493]]]}},{"type":"Feature","properties":{"layer":"zone_redev","id":"sintong26_13","name":"수유동 486일대","subtype":"신속통합기획","stage":"후보지 선정 · 26년 수시선정구역","sido":"서울특별시","sigungu":null,"target_area_m2":72364.0,"zoning":"2종","img":"https://cleanup.seoul.go.kr/share/cleanup/img/content/suyudong486.png","category":"신속통합기획 후보지 대표위치(면적 환산, 미작성)","color":"#f87171","area_m2":72364,"note":"대표지번 위치에 구역면적을 원으로 환산한 자리표시. 실제 경계는 구역 그리기 도구로 작성"},"geometry":{"type":"Polygon","coordinates":[[[127.01559145338557,37.62844],[127.01557672611321,37.628617955254995],[127.01553279628386,37.62879286564624],[127.0154604155491,37.62896173840845],[127.01536082236333,37.62912168408184],[127.0152357207936,37.62926996595158],[127.01508725136243,37.62940404687379],[127.01491795442297,37.629521632686696],[127.01473072669278,37.629620711464455],[127.01452877169024,37.629699587941694],[127.01431554492144,37.62975691252003],[127.0140946947555,37.62979170436003],[127.01387,37.62980336816367],[127.0136453052445,37.62979170436003],[127.01342445507855,37.62975691252003],[127.01321122830976,37.629699587941694],[127.01300927330722,37.629620711464455],[127.01282204557702,37.629521632686696],[127.01265274863756,37.62940404687379],[127.0125042792064,37.62926996595158],[127.01237917763666,37.62912168408184],[127.0122795844509,37.62896173840845],[127.01220720371613,37.62879286564624],[127.01216327388678,37.628617955254995],[127.01214854661443,37.62844],[127.01216327388678,37.628262044745],[127.01220720371613,37.628087134353756],[127.0122795844509,37.627918261591546],[127.01237917763666,37.62775831591816],[127.0125042792064,37.627610034048416],[127.01265274863756,37.62747595312621],[127.01282204557702,37.6273583673133],[127.01300927330722,37.62725928853554],[127.01321122830976,37.6271804120583],[127.01342445507855,37.627123087479966],[127.0136453052445,37.627088295639965],[127.01387,37.627076631836324],[127.0140946947555,37.627088295639965],[127.01431554492144,37.627123087479966],[127.01452877169024,37.6271804120583],[127.01473072669278,37.62725928853554],[127.01491795442297,37.6273583673133],[127.01508725136243,37.62747595312621],[127.0152357207936,37.627610034048416],[127.01536082236333,37.62775831591816],[127.0154604155491,37.627918261591546],[127.01553279628386,37.628087134353756],[127.01557672611321,37.628262044745],[127.01559145338557,37.62844]]]}},{"type":"Feature","properties":{"layer":"zone_redev","id":"sintong26_14","name":"천호동 392-9일대","subtype":"신속통합기획","stage":"후보지 선정 · 26년 수시선정구역","sido":"서울특별시","sigungu":null,"target_area_m2":40592.7,"zoning":"2종, 2종(7)","img":"https://cleanup.seoul.go.kr/share/cleanup/img/content/chungo392_9.png","category":"신속통합기획 후보지 대표위치(면적 환산, 미작성)","color":"#f87171","area_m2":40593,"note":"대표지번 위치에 구역면적을 원으로 환산한 자리표시. 실제 경계는 구역 그리기 도구로 작성"},"geometry":{"type":"Polygon","coordinates":[[[127.13228783899365,37.54336],[127.13227682135252,37.54349328261478],[127.13224395694407,37.54362428472707],[127.1321898080874,37.54375076485441],[127.13211530128447,37.543870558886745],[127.13202171136736,37.54398161711498],[127.13191063968549,37.544082039302026],[127.1317839867061,37.544170107196436],[127.13164391949682,37.544244313932104],[127.13149283464642,37.54430338981121],[127.13133331725858,37.5443463240291],[127.13116809672003,37.54437238196939],[127.131,37.5443811177735],[127.13083190327997,37.54437238196939],[127.13066668274142,37.5443463240291],[127.13050716535358,37.54430338981121],[127.13035608050318,37.544244313932104],[127.1302160132939,37.544170107196436],[127.13008936031451,37.544082039302026],[127.12997828863264,37.54398161711498],[127.12988469871553,37.543870558886745],[127.1298101919126,37.54375076485441],[127.12975604305593,37.54362428472707],[127.12972317864748,37.54349328261478],[127.12971216100635,37.54336],[127.12972317864748,37.54322671738522],[127.12975604305593,37.543095715272926],[127.1298101919126,37.54296923514559],[127.12988469871553,37.542849441113255],[127.12997828863264,37.54273838288502],[127.13008936031451,37.542637960697974],[127.1302160132939,37.542549892803564],[127.13035608050318,37.542475686067895],[127.13050716535358,37.54241661018879],[127.13066668274142,37.5423736759709],[127.13083190327997,37.54234761803061],[127.131,37.5423388822265],[127.13116809672003,37.54234761803061],[127.13133331725858,37.5423736759709],[127.13149283464642,37.54241661018879],[127.13164391949682,37.542475686067895],[127.1317839867061,37.542549892803564],[127.13191063968549,37.542637960697974],[127.13202171136736,37.54273838288502],[127.13211530128447,37.542849441113255],[127.1321898080874,37.54296923514559],[127.13224395694407,37.543095715272926],[127.13227682135252,37.54322671738522],[127.13228783899365,37.54336]]]}},{"type":"Feature","properties":{"layer":"zone_redev","id":"sintong26_15","name":"사당동 77-24일대","subtype":"신속통합기획","stage":"후보지 선정 · 26년 수시선정구역","sido":"서울특별시","sigungu":null,"target_area_m2":25194.8,"zoning":"2종, 3종, 일반상업","img":"https://cleanup.seoul.go.kr/share/cleanup/img/content/sadangdong77_24.png","category":"신속통합기획 후보지 대표위치(면적 환산, 미작성)","color":"#f87171","area_m2":25195,"note":"대표지번 위치에 구역면적을 원으로 환산한 자리표시. 실제 경계는 구역 그리기 도구로 작성"},"geometry":{"type":"Polygon","coordinates":[[[126.98146386622733,37.48968],[126.98145519246121,37.489785003794246],[126.98142931957338,37.489888210944464],[126.98138669025613,37.489987855547696],[126.98132803390891,37.49008223265715],[126.98125435415805,37.49016972745432],[126.98116691168457,37.49024884287897],[126.98106720265338,37.49031822524425],[126.98095693311366,37.49037668739865],[126.98083798980784,37.4904232290385],[126.98071240788882,37.49045705382344],[126.98058233609808,37.49047758300202],[126.98045,37.4904844653143],[126.98031766390193,37.49047758300202],[126.98018759211119,37.49045705382344],[126.98006201019217,37.4904232290385],[126.97994306688635,37.49037668739865],[126.97983279734663,37.49031822524425],[126.97973308831544,37.49024884287897],[126.97964564584196,37.49016972745432],[126.9795719660911,37.49008223265715],[126.97951330974388,37.489987855547696],[126.97947068042663,37.489888210944464],[126.9794448075388,37.489785003794246],[126.97943613377268,37.48968],[126.9794448075388,37.489574996205754],[126.97947068042663,37.489471789055536],[126.97951330974388,37.489372144452304],[126.9795719660911,37.48927776734285],[126.97964564584196,37.48919027254568],[126.97973308831544,37.48911115712103],[126.97983279734663,37.48904177475575],[126.97994306688635,37.48898331260135],[126.98006201019217,37.4889367709615],[126.98018759211119,37.48890294617656],[126.98031766390193,37.48888241699798],[126.98045,37.4888755346857],[126.98058233609808,37.48888241699798],[126.98071240788882,37.48890294617656],[126.98083798980784,37.4889367709615],[126.98095693311366,37.48898331260135],[126.98106720265338,37.48904177475575],[126.98116691168457,37.48911115712103],[126.98125435415805,37.48919027254568],[126.98132803390891,37.48927776734285],[126.98138669025613,37.489372144452304],[126.98142931957338,37.489471789055536],[126.98145519246121,37.489574996205754],[126.98146386622733,37.48968]]]}},{"type":"Feature","properties":{"layer":"zone_redev","id":"sintong26_16","name":"사당동 1026-10일대","subtype":"신속통합기획","stage":"후보지 선정 · 26년 수시선정구역","sido":"서울특별시","sigungu":null,"target_area_m2":113858.5,"zoning":"1종, 2종, 3종","img":"https://cleanup.seoul.go.kr/share/cleanup/img/content/sadang1026_10.png","category":"신속통합기획 후보지 대표위치(면적 환산, 미작성)","color":"#f87171","area_m2":113858,"note":"대표지번 위치에 구역면적을 원으로 환산한 자리표시. 실제 경계는 구역 그리기 도구로 작성"},"geometry":{"type":"Polygon","coordinates":[[[126.9804750373235,37.48054],[126.98045660068045,37.48076321956821],[126.9804016062074,37.48098261978773],[126.98031099487498,37.481194446659956],[126.98018631706826,37.48139507576839],[126.98002970605906,37.48158107429335],[126.97984384150516,37.48174925974851],[126.97963190360062,37.48189675443411],[126.97939751866176,37.48202103467517],[126.97914469707983,37.48211997400232],[126.97887776470223,37.482191879536245],[126.97860128881592,37.48223552095331],[126.97832,37.48225015153678],[126.97803871118407,37.48223552095331],[126.97776223529776,37.482191879536245],[126.97749530292016,37.48211997400232],[126.97724248133824,37.48202103467517],[126.97700809639937,37.48189675443411],[126.97679615849484,37.48174925974851],[126.97661029394094,37.48158107429335],[126.97645368293173,37.48139507576839],[126.97632900512501,37.481194446659956],[126.9762383937926,37.48098261978773],[126.97618339931954,37.48076321956821],[126.97616496267649,37.48054],[126.97618339931954,37.480316780431785],[126.9762383937926,37.480097380212264],[126.97632900512501,37.47988555334004],[126.97645368293173,37.479684924231606],[126.97661029394094,37.47949892570664],[126.97679615849484,37.479330740251484],[126.97700809639937,37.479183245565885],[126.97724248133824,37.479058965324825],[126.97749530292016,37.47896002599767],[126.97776223529776,37.47888812046375],[126.97803871118407,37.478844479046685],[126.97832,37.478829848463214],[126.97860128881592,37.478844479046685],[126.97887776470223,37.47888812046375],[126.97914469707983,37.47896002599767],[126.97939751866176,37.479058965324825],[126.97963190360062,37.479183245565885],[126.97984384150516,37.479330740251484],[126.98002970605906,37.47949892570664],[126.98018631706826,37.479684924231606],[126.98031099487498,37.47988555334004],[126.9804016062074,37.480097380212264],[126.98045660068045,37.480316780431785],[126.9804750373235,37.48054]]]}},{"type":"Feature","properties":{"layer":"zone_redev","id":"sintong26_17","name":"노량진동 205-269일대","subtype":"신속통합기획","stage":"후보지 선정 · 26년 수시선정구역","sido":"서울특별시","sigungu":null,"target_area_m2":59308.3,"zoning":"2종(7), 2종, 3종, 일반상업","img":"https://cleanup.seoul.go.kr/share/cleanup/img/content/noriangjin205_269.png","category":"신속통합기획 후보지 대표위치(면적 환산, 미작성)","color":"#f87171","area_m2":59308,"note":"대표지번 위치에 구역면적을 원으로 환산한 자리표시. 실제 경계는 구역 그리기 도구로 작성"},"geometry":{"type":"Polygon","coordinates":[[[126.94932599779447,37.51135],[126.94931268601763,37.51151110435205],[126.94927297845533,37.51166945216398],[126.94920755451494,37.51182233406081],[126.94911753361825,37.511967134190904],[126.94900445604773,37.51210137498389],[126.94887025659199,37.51222275954258],[126.9487172314409,37.51232921094353],[126.94854799889724,37.512418907773736],[126.94836545457675,37.51249031529559],[126.94817272186334,37.51254221170657],[126.94797309846722,37.51257370904471],[126.94777,37.512584268381815],[126.9475669015328,37.51257370904471],[126.94736727813667,37.51254221170657],[126.94717454542327,37.51249031529559],[126.94699200110277,37.512418907773736],[126.94682276855912,37.51232921094353],[126.94666974340802,37.51222275954258],[126.94653554395228,37.51210137498389],[126.94642246638176,37.511967134190904],[126.94633244548507,37.51182233406081],[126.94626702154468,37.51166945216398],[126.94622731398238,37.51151110435205],[126.94621400220554,37.51135],[126.94622731398238,37.51118889564795],[126.94626702154468,37.51103054783602],[126.94633244548507,37.51087766593919],[126.94642246638176,37.510732865809096],[126.94653554395228,37.51059862501611],[126.94666974340802,37.51047724045742],[126.94682276855912,37.51037078905647],[126.94699200110277,37.510281092226265],[126.94717454542327,37.510209684704414],[126.94736727813667,37.510157788293434],[126.9475669015328,37.51012629095529],[126.94777,37.510115731618185],[126.94797309846722,37.51012629095529],[126.94817272186334,37.510157788293434],[126.94836545457675,37.510209684704414],[126.94854799889724,37.510281092226265],[126.9487172314409,37.51037078905647],[126.94887025659199,37.51047724045742],[126.94900445604773,37.51059862501611],[126.94911753361825,37.510732865809096],[126.94920755451494,37.51087766593919],[126.94927297845533,37.51103054783602],[126.94931268601763,37.51118889564795],[126.94932599779447,37.51135]]]}},{"type":"Feature","properties":{"layer":"zone_redev","id":"sintong26_18","name":"구로동 400일대","subtype":"신속통합기획","stage":"후보지 선정 · 26년 수시선정구역","sido":"서울특별시","sigungu":null,"target_area_m2":27306.8,"zoning":"2종(7)","img":"https://cleanup.seoul.go.kr/share/cleanup/img/content/guro400.png","category":"신속통합기획 후보지 대표위치(면적 환산, 미작성)","color":"#f87171","area_m2":27307,"note":"대표지번 위치에 구역면적을 원으로 환산한 자리표시. 실제 경계는 구역 그리기 도구로 작성"},"geometry":{"type":"Polygon","coordinates":[[[126.88147553019729,37.49141],[126.88146649999013,37.491519316303936],[126.88143956387799,37.491626762175606],[126.88139518274522,37.49173049918635],[126.88133411596532,37.49182875236716],[126.88125740840779,37.491919840578866],[126.88116637256024,37.49200220527692],[126.88106256607126,37.49207443717849],[126.88094776509864,37.492135300375715],[126.88082393391886,37.49218375348242],[126.88069319131775,37.49221896745252],[126.88055777433743,37.49224033976522],[126.88042,37.49224750473432],[126.88028222566257,37.49224033976522],[126.88014680868226,37.49221896745252],[126.88001606608114,37.49218375348242],[126.87989223490136,37.492135300375715],[126.87977743392874,37.49207443717849],[126.87967362743976,37.49200220527692],[126.87958259159221,37.491919840578866],[126.87950588403469,37.49182875236716],[126.87944481725478,37.49173049918635],[126.87940043612201,37.491626762175606],[126.87937350000988,37.491519316303936],[126.87936446980271,37.49141],[126.87937350000988,37.49130068369607],[126.87940043612201,37.4911932378244],[126.87944481725478,37.49108950081365],[126.87950588403469,37.49099124763284],[126.87958259159221,37.49090015942114],[126.87967362743976,37.490817794723085],[126.87977743392874,37.490745562821516],[126.87989223490136,37.49068469962429],[126.88001606608114,37.49063624651758],[126.88014680868226,37.49060103254748],[126.88028222566257,37.490579660234786],[126.88042,37.49057249526568],[126.88055777433743,37.490579660234786],[126.88069319131775,37.49060103254748],[126.88082393391886,37.49063624651758],[126.88094776509864,37.49068469962429],[126.88106256607126,37.490745562821516],[126.88116637256024,37.490817794723085],[126.88125740840779,37.49090015942114],[126.88133411596532,37.49099124763284],[126.88139518274522,37.49108950081365],[126.88143956387799,37.4911932378244],[126.88146649999013,37.49130068369607],[126.88147553019729,37.49141]]]}},{"type":"Feature","properties":{"layer":"zone_redev","id":"sintong26_19","name":"온수동 62일대","subtype":"신속통합기획","stage":"후보지 선정 · 26년 수시선정구역","sido":"서울특별시","sigungu":null,"target_area_m2":10927.0,"zoning":"2종(7)","img":"https://cleanup.seoul.go.kr/share/cleanup/img/content/onsudong62.png","category":"신속통합기획 후보지 대표위치(면적 환산, 미작성)","color":"#f87171","area_m2":10927,"note":"대표지번 위치에 구역면적을 원으로 환산한 자리표시. 실제 경계는 구역 그리기 도구로 작성"},"geometry":{"type":"Polygon","coordinates":[[[126.81941771545326,37.49239],[126.81941200305499,37.49245915124543],[126.81939496360091,37.492527119293875],[126.8193668886408,37.49259274119319],[126.81932825854501,37.492654894134475],[126.8192797342852,37.49271251466368],[126.8192221461249,37.49276461687757],[126.8191564794135,37.49281030929282],[126.81908385772662,37.49284881009954],[126.8190055236415,37.49287946053825],[126.81892281747601,37.49290173617145],[126.81883715435559,37.49291525585687],[126.81875,37.49291978826895],[126.8186628456444,37.49291525585687],[126.81857718252398,37.49290173617145],[126.8184944763585,37.49287946053825],[126.81841614227336,37.49284881009954],[126.8183435205865,37.49281030929282],[126.81827785387509,37.49276461687757],[126.81822026571479,37.49271251466368],[126.81817174145498,37.492654894134475],[126.81813311135919,37.49259274119319],[126.81810503639907,37.492527119293875],[126.818087996945,37.49245915124543],[126.81808228454673,37.49239],[126.818087996945,37.492320848754574],[126.81810503639907,37.492252880706125],[126.81813311135919,37.49218725880681],[126.81817174145498,37.492125105865526],[126.81822026571479,37.49206748533632],[126.81827785387509,37.49201538312243],[126.8183435205865,37.49196969070718],[126.81841614227336,37.49193118990046],[126.8184944763585,37.49190053946175],[126.81857718252398,37.49187826382855],[126.8186628456444,37.49186474414313],[126.81875,37.49186021173105],[126.81883715435559,37.49186474414313],[126.81892281747601,37.49187826382855],[126.8190055236415,37.49190053946175],[126.81908385772662,37.49193118990046],[126.8191564794135,37.49196969070718],[126.8192221461249,37.49201538312243],[126.8192797342852,37.49206748533632],[126.81932825854501,37.492125105865526],[126.8193668886408,37.49218725880681],[126.81939496360091,37.492252880706125],[126.81941200305499,37.492320848754574],[126.81941771545326,37.49239]]]}},{"type":"Feature","properties":{"layer":"zone_redev","id":"sintong26_20","name":"불광동 16-111","subtype":"신속통합기획","stage":"후보지 선정 · 26년 수시선정구역","sido":"서울특별시","sigungu":null,"target_area_m2":38296.4,"zoning":"1종, 2종(7), 2종","img":"https://cleanup.seoul.go.kr/share/cleanup/img/content/bulguangdong16_111.png","category":"신속통합기획 후보지 대표위치(면적 환산, 미작성)","color":"#f87171","area_m2":38296,"note":"대표지번 위치에 구역면적을 원으로 환산한 자리표시. 실제 경계는 구역 그리기 도구로 작성"},"geometry":{"type":"Polygon","coordinates":[[[126.93484218652073,37.62092],[126.93483147389145,37.621049457885746],[126.9347995192997,37.62117670071118],[126.93474686949739,37.62129955131628],[126.93467442533722,37.62141590769312],[126.93458342635888,37.62152377895184],[126.93447542958012,37.6216213193853],[126.93435228285574,37.62170686004963],[126.93421609326036,37.62177893732035],[126.9340691910357,37.621836317935376],[126.93391408971958,37.62187802009648],[126.9337534431385,37.62190333026812],[126.93359,37.62191181538624],[126.93342655686149,37.62190333026812],[126.93326591028041,37.62187802009648],[126.93311080896429,37.621836317935376],[126.93296390673963,37.62177893732035],[126.93282771714425,37.62170686004963],[126.93270457041987,37.6216213193853],[126.9325965736411,37.62152377895184],[126.93250557466277,37.62141590769312],[126.9324331305026,37.62129955131628],[126.93238048070029,37.62117670071118],[126.93234852610854,37.621049457885746],[126.93233781347926,37.62092],[126.93234852610854,37.62079054211425],[126.93238048070029,37.620663299288815],[126.9324331305026,37.62054044868372],[126.93250557466277,37.62042409230688],[126.9325965736411,37.62031622104816],[126.93270457041987,37.6202186806147],[126.93282771714425,37.62013313995037],[126.93296390673963,37.620061062679646],[126.93311080896429,37.62000368206462],[126.93326591028041,37.619961979903515],[126.93342655686149,37.61993666973188],[126.93359,37.619928184613755],[126.9337534431385,37.61993666973188],[126.93391408971958,37.619961979903515],[126.9340691910357,37.62000368206462],[126.93421609326036,37.620061062679646],[126.93435228285574,37.62013313995037],[126.93447542958012,37.6202186806147],[126.93458342635888,37.62031622104816],[126.93467442533722,37.62042409230688],[126.93474686949739,37.62054044868372],[126.9347995192997,37.620663299288815],[126.93483147389145,37.62079054211425],[126.93484218652073,37.62092]]]}},{"type":"Feature","properties":{"layer":"zone_redev","id":"sintong26_21","name":"북가좌동 3-191일대","subtype":"신속통합기획","stage":"후보지 선정 · 26년 수시선정구역","sido":"서울특별시","sigungu":null,"target_area_m2":77001.2,"zoning":"2종, 2종(7)","img":"https://cleanup.seoul.go.kr/share/cleanup/img/content/bukgadong3_191.png","category":"신속통합기획 후보지 대표위치(면적 환산, 미작성)","color":"#f87171","area_m2":77001,"note":"대표지번 위치에 구역면적을 원으로 환산한 자리표시. 실제 경계는 구역 그리기 도구로 작성"},"geometry":{"type":"Polygon","coordinates":[[[126.91893464925084,37.58216],[126.91891946688048,37.582343568551664],[126.91887417954399,37.58252399619451],[126.91879956212023,37.58269819576155],[126.91869689133404,37.5828631866499],[126.918567923911,37.583016145819705],[126.9184148665195,37.58315445609717],[126.91824033801393,37.58327575095509],[126.91804732462542,37.58337795500483],[126.91783912886655,37.58345931950675],[126.91761931302449,37.58351845229168],[126.91739163820924,37.58355434158126],[126.91716,37.583566373299796],[126.91692836179075,37.58355434158126],[126.9167006869755,37.58351845229168],[126.91648087113344,37.58345931950675],[126.91627267537457,37.58337795500483],[126.91607966198606,37.58327575095509],[126.91590513348049,37.58315445609717],[126.91575207608899,37.583016145819705],[126.91562310866595,37.5828631866499],[126.91552043787976,37.58269819576155],[126.915445820456,37.58252399619451],[126.91540053311951,37.582343568551664],[126.91538535074915,37.58216],[126.91540053311951,37.58197643144834],[126.915445820456,37.58179600380549],[126.91552043787976,37.58162180423845],[126.91562310866595,37.5814568133501],[126.91575207608899,37.5813038541803],[126.91590513348049,37.581165543902834],[126.91607966198606,37.581044249044915],[126.91627267537457,37.580942044995176],[126.91648087113344,37.58086068049325],[126.9167006869755,37.580801547708326],[126.91692836179075,37.58076565841874],[126.91716,37.58075362670021],[126.91739163820924,37.58076565841874],[126.91761931302449,37.580801547708326],[126.91783912886655,37.58086068049325],[126.91804732462542,37.580942044995176],[126.91824033801393,37.581044249044915],[126.9184148665195,37.581165543902834],[126.918567923911,37.5813038541803],[126.91869689133404,37.5814568133501],[126.91879956212023,37.58162180423845],[126.91887417954399,37.58179600380549],[126.91891946688048,37.58197643144834],[126.91893464925084,37.58216]]]}},{"type":"Feature","properties":{"layer":"zone_redev","id":"sintong26_22","name":"연희동 170-14일대","subtype":"신속통합기획","stage":"후보지 선정 · 26년 수시선정구역","sido":"서울특별시","sigungu":null,"target_area_m2":35623.6,"zoning":"2종","img":"https://cleanup.seoul.go.kr/share/cleanup/img/content/yeonhi170_14.png","category":"신속통합기획 후보지 대표위치(면적 환산, 미작성)","color":"#f87171","area_m2":35624,"note":"대표지번 위치에 구역면적을 원으로 환산한 자리표시. 실제 경계는 구역 그리기 도구로 작성"},"geometry":{"type":"Polygon","coordinates":[[[126.93480699898285,37.57774],[126.93479667293924,37.57786485859325],[126.93476587148984,37.57798758082136],[126.93471512165603,37.57810606687297],[126.9346452917815,37.57821828941889],[126.93455757667478,37.578322328300246],[126.93445347716566,37.57841640338294],[126.93433477442562,37.578498905016204],[126.93420349949143,37.57856842157424],[126.93406189851362,37.57862376360946],[126.93391239432418,37.5786639842043],[126.93375754498125,37.57868839517322],[126.9336,37.578696578837786],[126.93344245501875,37.57868839517322],[126.93328760567582,37.5786639842043],[126.93313810148638,37.57862376360946],[126.93299650050857,37.57856842157424],[126.93286522557437,37.578498905016204],[126.93274652283434,37.57841640338294],[126.93264242332522,37.578322328300246],[126.9325547082185,37.57821828941889],[126.93248487834397,37.57810606687297],[126.93243412851015,37.57798758082136],[126.93240332706075,37.57786485859325],[126.93239300101715,37.57774],[126.93240332706075,37.577615141406746],[126.93243412851015,37.57749241917864],[126.93248487834397,37.57737393312703],[126.9325547082185,37.577261710581105],[126.93264242332522,37.57715767169975],[126.93274652283434,37.57706359661706],[126.93286522557437,37.57698109498379],[126.93299650050857,37.57691157842576],[126.93313810148638,37.57685623639054],[126.93328760567582,37.5768160157957],[126.93344245501875,37.57679160482678],[126.9336,37.57678342116221],[126.93375754498125,37.57679160482678],[126.93391239432418,37.5768160157957],[126.93406189851362,37.57685623639054],[126.93420349949143,37.57691157842576],[126.93433477442562,37.57698109498379],[126.93445347716566,37.57706359661706],[126.93455757667478,37.57715767169975],[126.9346452917815,37.577261710581105],[126.93471512165603,37.57737393312703],[126.93476587148984,37.57749241917864],[126.93479667293924,37.577615141406746],[126.93480699898285,37.57774]]]}},{"type":"Feature","properties":{"layer":"zone_redev","id":"sintong26_23","name":"답십리동 471일대(간데메공원)","subtype":"신속통합기획","stage":"후보지 선정 · 26년 수시선정구역","sido":"서울특별시","sigungu":null,"target_area_m2":102735.8,"zoning":"1종, 2종, 3종","img":"https://cleanup.seoul.go.kr/share/cleanup/img/content/quickPublic_1.png","category":"신속통합기획 후보지 대표위치(면적 환산, 미작성)","color":"#f87171","area_m2":102736,"note":"대표지번 위치에 구역면적을 원으로 환산한 자리표시. 실제 경계는 구역 그리기 도구로 작성"},"geometry":{"type":"Polygon","coordinates":[[[127.05077961949614,37.57334],[127.0507620847172,37.57355203640791],[127.05070978040538,37.5737604448141],[127.05062360150191,37.57396165929294],[127.05050502255175,37.57415223700893],[127.05035607247359,37.5743289171245],[127.05017929984457,37.57448867659389],[127.04997772929339,37.57462878188828],[127.04975480974807,37.57474683576725],[127.04951435542382,37.574840818296195],[127.04926048056082,37.574909121407984],[127.04899752902834,37.574950576417436],[127.04873,37.574964474017854],[127.04846247097167,37.574950576417436],[127.0481995194392,37.574909121407984],[127.04794564457619,37.574840818296195],[127.04770519025195,37.57474683576725],[127.04748227070662,37.57462878188828],[127.04728070015544,37.57448867659389],[127.04710392752642,37.5743289171245],[127.04695497744827,37.57415223700893],[127.0468363984981,37.57396165929294],[127.04675021959463,37.5737604448141],[127.0466979152828,37.57355203640791],[127.04668038050387,37.57334],[127.0466979152828,37.57312796359209],[127.04675021959463,37.572919555185905],[127.0468363984981,37.57271834070706],[127.04695497744827,37.57252776299107],[127.04710392752642,37.57235108287551],[127.04728070015544,37.572191323406116],[127.04748227070662,37.572051218111724],[127.04770519025195,37.57193316423275],[127.04794564457619,37.57183918170381],[127.0481995194392,37.57177087859202],[127.04846247097167,37.57172942358257],[127.04873,37.57171552598215],[127.04899752902834,37.57172942358257],[127.04926048056082,37.57177087859202],[127.04951435542382,37.57183918170381],[127.04975480974807,37.57193316423275],[127.04997772929339,37.572051218111724],[127.05017929984457,37.572191323406116],[127.05035607247359,37.57235108287551],[127.05050502255175,37.57252776299107],[127.05062360150191,37.57271834070706],[127.05070978040538,37.572919555185905],[127.0507620847172,37.57312796359209],[127.05077961949614,37.57334]]]}},{"type":"Feature","properties":{"layer":"zone_redev","id":"sintong26_24","name":"수유동 170-1일대","subtype":"신속통합기획","stage":"후보지 선정 · 26년 수시선정구역","sido":"서울특별시","sigungu":null,"target_area_m2":12123.7,"zoning":"2종(7)","img":"https://cleanup.seoul.go.kr/share/cleanup/img/content/quickPublic_2.png","category":"신속통합기획 후보지 대표위치(면적 환산, 미작성)","color":"#f87171","area_m2":12124,"note":"대표지번 위치에 구역면적을 원으로 환산한 자리표시. 실제 경계는 구역 그리기 도구로 작성"},"geometry":{"type":"Polygon","coordinates":[[[127.02691476225941,37.64402],[127.02690873292059,37.644092839528405],[127.02689074806776,37.64416443275229],[127.02686111542675,37.64423355469174],[127.02682034202027,37.6442990226512],[127.02676912549262,37.64435971645574],[127.02670834217275,37.64441459761753],[127.02663903208015,37.64446272710469],[127.02656238112971,37.64450328140834],[127.02647970084044,37.644535566633095],[127.02639240589501,37.64455903036983],[127.02630198993414,37.64457327114747],[127.02621,37.644578045302396],[127.02611801006587,37.64457327114747],[127.026027594105,37.64455903036983],[127.02594029915957,37.644535566633095],[127.0258576188703,37.64450328140834],[127.02578096791986,37.64446272710469],[127.02571165782726,37.64441459761753],[127.02565087450739,37.64435971645574],[127.02559965797974,37.6442990226512],[127.02555888457326,37.64423355469174],[127.02552925193226,37.64416443275229],[127.02551126707942,37.644092839528405],[127.0255052377406,37.64402],[127.02551126707942,37.64394716047159],[127.02552925193226,37.643875567247704],[127.02555888457326,37.64380644530826],[127.02559965797974,37.6437409773488],[127.02565087450739,37.643680283544256],[127.02571165782726,37.64362540238246],[127.02578096791986,37.64357727289531],[127.0258576188703,37.643536718591655],[127.02594029915957,37.6435044333669],[127.026027594105,37.64348096963017],[127.02611801006587,37.64346672885252],[127.02621,37.6434619546976],[127.02630198993414,37.64346672885252],[127.02639240589501,37.64348096963017],[127.02647970084044,37.6435044333669],[127.02656238112971,37.643536718591655],[127.02663903208015,37.64357727289531],[127.02670834217275,37.64362540238246],[127.02676912549262,37.643680283544256],[127.02682034202027,37.6437409773488],[127.02686111542675,37.64380644530826],[127.02689074806776,37.643875567247704],[127.02690873292059,37.64394716047159],[127.02691476225941,37.64402]]]}},{"type":"Feature","properties":{"layer":"zone_redev","id":"sintong26_25","name":"남가좌동 337-8일대","subtype":"신속통합기획","stage":"후보지 선정 · 26년 수시선정구역","sido":"서울특별시","sigungu":null,"target_area_m2":76569.3,"zoning":"2종(7), 2종","img":"https://cleanup.seoul.go.kr/share/cleanup/img/content/quickPublic_3.png","category":"신속통합기획 후보지 대표위치(면적 환산, 미작성)","color":"#f87171","area_m2":76569,"note":"대표지번 위치에 구역면적을 원으로 환산한 자리표시. 실제 경계는 구역 그리기 도구로 작성"},"geometry":{"type":"Polygon","coordinates":[[[126.92471952002961,37.57605],[126.92470438154047,37.5762330530094],[126.92465922509675,37.57641297393106],[126.92458482333772,37.57658668426813],[126.92448244929815,37.57675121178857],[126.9243538546262,37.57690374138089],[126.92420123961239,37.577041663221486],[126.92402721554188,37.57716261742942],[126.92383476001481,37.57726453444466],[126.92362716599857,37.577345670438824],[126.92340798548436,37.57740463715255],[126.92318096871152,37.577440425649016],[126.92295,37.57745242357713],[126.92271903128848,37.577440425649016],[126.92249201451564,37.57740463715255],[126.92227283400143,37.577345670438824],[126.92206523998519,37.57726453444466],[126.92187278445812,37.57716261742942],[126.92169876038761,37.577041663221486],[126.9215461453738,37.57690374138089],[126.92141755070185,37.57675121178857],[126.92131517666228,37.57658668426813],[126.92124077490325,37.57641297393106],[126.92119561845954,37.5762330530094],[126.92118047997039,37.57605],[126.92119561845954,37.5758669469906],[126.92124077490325,37.57568702606894],[126.92131517666228,37.575513315731875],[126.92141755070185,37.575348788211436],[126.9215461453738,37.575196258619115],[126.92169876038761,37.57505833677852],[126.92187278445812,37.57493738257058],[126.92206523998519,37.574835465555346],[126.92227283400143,37.57475432956118],[126.92249201451564,37.57469536284746],[126.92271903128848,37.57465957435099],[126.92295,37.574647576422876],[126.92318096871152,37.57465957435099],[126.92340798548436,37.57469536284746],[126.92362716599857,37.57475432956118],[126.92383476001481,37.574835465555346],[126.92402721554188,37.57493738257058],[126.92420123961239,37.57505833677852],[126.9243538546262,37.575196258619115],[126.92448244929815,37.575348788211436],[126.92458482333772,37.575513315731875],[126.92465922509675,37.57568702606894],[126.92470438154047,37.5758669469906],[126.92471952002961,37.57605]]]}}]}